{
"type": "FeatureCollection",
"name": "ne_10m_airports",
"crs": { "type": "name", "properties": { "name": "urn:ogc:def:crs:OGC:1.3:CRS84" } },
"features": [
{ "type": "Feature", "properties": { "scalerank": 3, "featurecla": "Airport", "type": "major", "name": "Copenhagen", "abbrev": "CPH", "location": "terminal", "gps_code": "EKCH", "iata_code": "CPH", "wikipedia": "http:\/\/en.wikipedia.org\/wiki\/Copenhagen_Airport", "natlscale": 75.0, "comments": null, "wikidataid": "Q206277", "name_ar": "مطار كوبنهاغن", "name_bn": null, "name_de": "Flughafen Kopenhagen-Kastrup", "name_en": "Copenhagen Airport", "name_es": "Aeropuerto de Copenhague-Kastrup", "name_fr": "aéroport de Copenhague", "name_el": null, "name_hi": "कोपनहेगन विमानक्षेत्र", "name_hu": "Koppenhágai repülőtér", "name_id": "Bandar Udara Kopenhagen", "name_it": "aeroporto di Copenaghen", "name_ja": "コペンハーゲン国際空港", "name_ko": "코펜하겐 공항", "name_nl": "Internationale luchthaven Kopenhagen Kastrup", "name_pl": "Port lotniczy Kopenhaga-Kastrup", "name_pt": "Aeroporto de Copenhaga", "name_ru": "Каструп", "name_sv": "Köpenhamns flygplats", "name_tr": "Kopenhag Havalimanı", "name_vi": "Sân bay Copenhagen", "name_zh": "哥本哈根凯斯楚普机场", "wdid_score": 4, "ne_id": 1159126853 }, "geometry": { "type": "Point", "coordinates": [ 12.649350868450769, 55.628501722152784 ] } },
{ "type": "Feature", "properties": { "scalerank": 3, "featurecla": "Airport", "type": "mid", "name": "Aeroportul National Bucuresti-Baneasa", "abbrev": "BBU", "location": "terminal", "gps_code": "LRBS", "iata_code": "BBU", "wikipedia": "http:\/\/en.wikipedia.org\/wiki\/Aurel_Vlaicu_International_Airport", "natlscale": 75.0, "comments": null, "wikidataid": "Q843229", "name_ar": "مطار أوريل فلايكو الدولي", "name_bn": null, "name_de": "Flughafen Bukarest-Băneasa", "name_en": "Aurel Vlaicu International Airport", "name_es": "Aeropuerto de Bucarest-Băneasa", "name_fr": "aéroport international Aurel-Vlaicu", "name_el": null, "name_hi": null, "name_hu": "Bukarest-Băneasa – Aurel Vlaicu nemzetközi repülőtér", "name_id": "Bandar Udara Internasional Aurel Vlaicu", "name_it": "Aeroporto di Bucarest-Aurel Vlaicu", "name_ja": "アウレル・ヴライク国際空港", "name_ko": null, "name_nl": "Aurel Vlaicu International Airport", "name_pl": "Port lotniczy Bukareszt-Băneasa", "name_pt": null, "name_ru": "Международный аэропорт Бухарест Бэняса имени Ауреля Влайку", "name_sv": null, "name_tr": null, "name_vi": null, "name_zh": "布加勒斯特伯尼亚萨－奥雷尔·弗拉伊库国际机场", "wdid_score": 4, "ne_id": 1159126867 }, "geometry": { "type": "Point", "coordinates": [ 26.085725158776373, 44.497041455972031 ] } },
{ "type": "Feature", "properties": { "scalerank": 3, "featurecla": "Airport", "type": "major", "name": "Ferihegy", "abbrev": "BUD", "location": "terminal", "gps_code": "LHBP", "iata_code": "BUD", "wikipedia": "http:\/\/en.wikipedia.org\/wiki\/Budapest_Ferihegy_International_Airport", "natlscale": 75.0, "comments": null, "wikidataid": "Q500945", "name_ar": "مطار بودابست فرانز ليست الدولي", "name_bn": null, "name_de": "Flughafen Budapest Liszt Ferenc", "name_en": "Budapest Ferenc Liszt International Airport", "name_es": "Aeropuerto de Budapest-Ferenc Liszt", "name_fr": "aéroport international de Budapest-Ferenc Liszt", "name_el": null, "name_hi": "फेरीहेगी हवाई अड्डा", "name_hu": "Budapest Liszt Ferenc nemzetközi repülőtér", "name_id": "Bandar Udara Internasional Ferihegy Budapest", "name_it": "Aeroporto di Budapest-Ferihegy", "name_ja": "リスト・フェレンツ国際空港", "name_ko": "부다페스트 리스트 페렌츠 국제공항", "name_nl": "Luchthaven van Boedapest", "name_pl": "Port lotniczy Budapest Liszt Ferenc", "name_pt": "Aeroporto de Budapeste Ferenc Liszt", "name_ru": "Международный аэропорт имени Ференца Листа", "name_sv": "Budapest-Ferihegy flygplats", "name_tr": null, "name_vi": "Sân bay quốc tế Budapest Ferihegy", "name_zh": "布達佩斯李斯特·費倫茨國際機場", "wdid_score": 4, "ne_id": 1159126881 }, "geometry": { "type": "Point", "coordinates": [ 19.262230167788079, 47.433274269247953 ] } },
{ "type": "Feature", "properties": { "scalerank": 3, "featurecla": "Airport", "type": "major", "name": "Chongqing Jiangbei Int'l", "abbrev": "CKG", "location": "terminal", "gps_code": "ZUCK", "iata_code": "CKG", "wikipedia": "http:\/\/en.wikipedia.org\/wiki\/Chongqing_Jiangbei_International_Airport", "natlscale": 75.0, "comments": null, "wikidataid": "Q788417", "name_ar": "مطار تشونغتشينغ جيانغبى الدولي", "name_bn": null, "name_de": "Flughafen Chongqing", "name_en": "Chongqing Jiangbei International Airport", "name_es": "Aeropuerto Internacional de Chongqing Jiangbei", "name_fr": "aéroport international de Chongqing", "name_el": null, "name_hi": null, "name_hu": null, "name_id": "Bandar Udara Internasional Jiangbei Chongqing", "name_it": null, "name_ja": "重慶江北国際空港", "name_ko": "충칭 장베이 국제공항", "name_nl": "Internationale luchthaven Chongqing Jiangbei", "name_pl": "Port lotniczy Chongqing-Jiangbei", "name_pt": "Aeroporto Internacional de Chongqing Jiangbei", "name_ru": "Чунцин Цзянбэй", "name_sv": "Chongqing Jiangbei International Airport", "name_tr": null, "name_vi": "Sân bay quốc tế Giang Bắc Trùng Khánh", "name_zh": "重庆江北国际机场", "wdid_score": 4, "ne_id": 1159126895 }, "geometry": { "type": "Point", "coordinates": [ 106.638019704810958, 29.724042224168777 ] } },
{ "type": "Feature", "properties": { "scalerank": 3, "featurecla": "Airport", "type": "major", "name": "Douglas Int'l", "abbrev": "CLT", "location": "terminal", "gps_code": "KCLT", "iata_code": "CLT", "wikipedia": "http:\/\/en.wikipedia.org\/wiki\/Charlotte\/Douglas_International_Airport", "natlscale": 75.0, "comments": null, "wikidataid": "Q597649", "name_ar": "مطار تشارلوت دوغلاس الدولي", "name_bn": null, "name_de": "Charlotte Douglas International Airport", "name_en": "Charlotte\/Douglas International Airport", "name_es": "Aeropuerto Internacional Douglas", "name_fr": "aéroport international Charlotte-Douglas", "name_el": null, "name_hi": null, "name_hu": null, "name_id": "Bandar Udara Internasional Charlotte\/Douglas", "name_it": "Aeroporto Internazionale di Charlotte-Douglas", "name_ja": "シャーロット・ダグラス国際空港", "name_ko": "샬롯 더글러스 국제공항", "name_nl": "Internationale luchthaven Charlotte-Douglas", "name_pl": "Port lotniczy Charlotte", "name_pt": "Aeroporto Internacional de Charlotte\/Douglas", "name_ru": "Шарлотт Дуглас", "name_sv": "Charlotte\/Douglas International Airport", "name_tr": "Charlotte Douglas Uluslararası Havalimanı", "name_vi": "Sân bay quốc tế Charlotte\/Douglas", "name_zh": "夏洛特道格拉斯國際機場", "wdid_score": 4, "ne_id": 1159126907 }, "geometry": { "type": "Point", "coordinates": [ -80.943927734276258, 35.220428168559714 ] } },
{ "type": "Feature", "properties": { "scalerank": 3, "featurecla": "Airport", "type": "major", "name": "Detroit Metro", "abbrev": "DTW", "location": "terminal", "gps_code": "KDTW", "iata_code": "DTW", "wikipedia": "http:\/\/en.wikipedia.org\/wiki\/Detroit_Metropolitan_Wayne_County_Airport", "natlscale": 75.0, "comments": null, "wikidataid": "Q652505", "name_ar": "مطار ديترويت", "name_bn": "ডেট্রয়েট মেট্রোপলিটান ওয়েন কান্ট্রি বিমানবন্দর", "name_de": "Detroit Metropolitan Wayne County Airport", "name_en": "Detroit Metropolitan Wayne County Airport", "name_es": "Aeropuerto Internacional de Detroit", "name_fr": "aéroport métropolitain de Détroit", "name_el": null, "name_hi": "डेट्राइट मेट्रोपॉलिटन वेन काउंटी विमानपत्तन", "name_hu": null, "name_id": null, "name_it": "Aeroporto di Detroit-Metropolitan Wayne County", "name_ja": "デトロイト・メトロポリタン・ウェイン・カウンティ空港", "name_ko": "디트로이트 메트로폴리탄 웨인 카운티 공항", "name_nl": "Detroit Metropolitan Wayne County Airport", "name_pl": "Port lotniczy Detroit", "name_pt": "Aeroporto Metropolitano de Detroit Wayne County", "name_ru": null, "name_sv": "Detroit Metropolitan Wayne County Airport", "name_tr": null, "name_vi": "Sân bay quốc tế Detroit", "name_zh": "底特律都会韦恩县机场", "wdid_score": 4, "ne_id": 1159126921 }, "geometry": { "type": "Point", "coordinates": [ -83.347893506561505, 42.225720450800409 ] } },
{ "type": "Feature", "properties": { "scalerank": 3, "featurecla": "Airport", "type": "major", "name": "Dublin", "abbrev": "DUB", "location": "terminal", "gps_code": "EIDW", "iata_code": "DUB", "wikipedia": "http:\/\/en.wikipedia.org\/wiki\/Dublin_Airport", "natlscale": 75.0, "comments": null, "wikidataid": "Q178021", "name_ar": "مطار دبلن الدولي", "name_bn": null, "name_de": "Flughafen Dublin", "name_en": "Dublin Airport", "name_es": "Aeropuerto de Dublín", "name_fr": "aéroport international de Dublin", "name_el": "Διεθνές Αεροδρόμιο Δουβλίνου", "name_hi": null, "name_hu": "Dublini repülőtér", "name_id": "Bandar Udara Dublin", "name_it": "Aeroporto di Dublino", "name_ja": "ダブリン空港", "name_ko": "더블린 공항", "name_nl": "Dublin Airport", "name_pl": "Port lotniczy Dublin", "name_pt": "Aeroporto de Dublin", "name_ru": "Дублинский аэропорт", "name_sv": "Dublin Airport", "name_tr": "Dublin Havalimanı", "name_vi": "Sân bay Dublin", "name_zh": "都柏林机场", "wdid_score": 4, "ne_id": 1159126945 }, "geometry": { "type": "Point", "coordinates": [ -6.243884910371394, 53.427008284970043 ] } },
{ "type": "Feature", "properties": { "scalerank": 3, "featurecla": "Airport", "type": "major", "name": "Fairbanks Int'l", "abbrev": "FAI", "location": "terminal", "gps_code": "PAFA", "iata_code": "FAI", "wikipedia": "http:\/\/en.wikipedia.org\/wiki\/Fairbanks_International_Airport", "natlscale": 75.0, "comments": null, "wikidataid": "Q1431295", "name_ar": null, "name_bn": null, "name_de": "Flughafen Fairbanks", "name_en": "Fairbanks International Airport", "name_es": "Aeropuerto Internacional de Fairbanks", "name_fr": null, "name_el": null, "name_hi": null, "name_hu": null, "name_id": "Bandar Udara Internasional Fairbanks", "name_it": null, "name_ja": "フェアバンクス国際空港", "name_ko": null, "name_nl": null, "name_pl": "Port lotniczy Fairbanks", "name_pt": null, "name_ru": "Фэрбенкс", "name_sv": "Fairbanks International Airport", "name_tr": null, "name_vi": "Sân bay quốc tế Fairbanks", "name_zh": "费尔班克斯国际机场", "wdid_score": 4, "ne_id": 1159126959 }, "geometry": { "type": "Point", "coordinates": [ -147.865721120795172, 64.818098111736916 ] } },
{ "type": "Feature", "properties": { "scalerank": 3, "featurecla": "Airport", "type": "major", "name": "Hamburg", "abbrev": "HAM", "location": "terminal", "gps_code": "EDDH", "iata_code": "HAM", "wikipedia": "http:\/\/en.wikipedia.org\/wiki\/Hamburg_Airport", "natlscale": 75.0, "comments": null, "wikidataid": "Q27706", "name_ar": "مطار هامبورغ", "name_bn": "হামবুর্গ বিমানবন্দর", "name_de": "Flughafen Hamburg", "name_en": "Hamburg Airport", "name_es": "Aeropuerto de Hamburgo-Fuhlsbüttel", "name_fr": "aéroport de Hambourg", "name_el": "Αεροδρόμιο του Αμβούργου", "name_hi": null, "name_hu": "Hamburgi repülőtér", "name_id": "Bandar Udara Internasional Hamburg", "name_it": "aeroporto di Amburgo-Fuhlsbüttel", "name_ja": "ハンブルク国際空港", "name_ko": "함부르크 공항", "name_nl": "Luchthaven Hamburg", "name_pl": "Port lotniczy Hamburg-Fuhlsbüttel", "name_pt": "Aeroporto de Hamburgo", "name_ru": "Гамбург", "name_sv": "Hamburgs flygplats", "name_tr": "Hamburg Havalimanı", "name_vi": "Sân bay Hamburg", "name_zh": "汉堡机场", "wdid_score": 4, "ne_id": 1159126973 }, "geometry": { "type": "Point", "coordinates": [ 10.005647830925001, 53.632001164086581 ] } },
{ "type": "Feature", "properties": { "scalerank": 3, "featurecla": "Airport", "type": "major", "name": "Kuala Lumpur Int'l", "abbrev": "KUL", "location": "terminal", "gps_code": "WMKK", "iata_code": "KUL", "wikipedia": "http:\/\/en.wikipedia.org\/wiki\/Kuala_Lumpur_International_Airport", "natlscale": 75.0, "comments": null, "wikidataid": "Q500253", "name_ar": "مطار كوالالمبور الدولي", "name_bn": "কুয়ালালামপুর আন্তর্জাতিক বিমানবন্দর", "name_de": "Flughafen Kuala Lumpur", "name_en": "Kuala Lumpur International Airport", "name_es": "Aeropuerto Internacional de Kuala Lumpur", "name_fr": "aéroport international de Kuala Lumpur", "name_el": "Διεθνές αεροδρόμιο Κουάλα Λουμπούρ", "name_hi": null, "name_hu": null, "name_id": "Bandar Udara Internasional Kuala Lumpur", "name_it": "Aeroporto Internazionale di Kuala Lumpur", "name_ja": "クアラルンプール国際空港", "name_ko": "쿠알라룸푸르 국제공항", "name_nl": "Kuala Lumpur International Airport", "name_pl": "Port lotniczy Kuala Lumpur", "name_pt": "Aeroporto Internacional de Kuala Lumpur", "name_ru": "Куала-Лумпур", "name_sv": "Kuala Lumpur International Airport", "name_tr": "Kuala Lumpur Uluslararası Havalimanı", "name_vi": "Sân bay quốc tế Kuala Lumpur", "name_zh": "吉隆坡国际机场", "wdid_score": 4, "ne_id": 1159126985 }, "geometry": { "type": "Point", "coordinates": [ 101.713886325742735, 2.747512957918107 ] } },
{ "type": "Feature", "properties": { "scalerank": 3, "featurecla": "Airport", "type": "major", "name": "Mccarran Int'l", "abbrev": "LAS", "location": "terminal", "gps_code": "KLAS", "iata_code": "LAS", "wikipedia": "http:\/\/en.wikipedia.org\/wiki\/McCarran_International_Airport", "natlscale": 75.0, "comments": null, "wikidataid": "Q853886", "name_ar": "مطار ماكاران الدولي", "name_bn": null, "name_de": "Flughafen McCarran International", "name_en": "McCarran International Airport", "name_es": "Aeropuerto Internacional McCarran", "name_fr": "aéroport international McCarran", "name_el": null, "name_hi": null, "name_hu": null, "name_id": "Bandar Udara Internasional McCarran", "name_it": "Aeroporto Internazionale McCarran", "name_ja": "マッカラン国際空港", "name_ko": "매캐런 국제공항", "name_nl": "McCarran International Airport", "name_pl": "Port lotniczy Las Vegas-McCarran", "name_pt": "Aeroporto Internacional de Las Vegas", "name_ru": "Международный аэропорт Маккаран", "name_sv": "McCarran International Airport", "name_tr": "McCarran Uluslararası Havalimanı", "name_vi": "Sân bay quốc tế McCarran", "name_zh": "麦卡伦国际机场", "wdid_score": 4, "ne_id": 1159126995 }, "geometry": { "type": "Point", "coordinates": [ -115.151323951283317, 36.084960238336741 ] } },
{ "type": "Feature", "properties": { "scalerank": 3, "featurecla": "Airport", "type": "major", "name": "Orlando Int'l", "abbrev": "MCO", "location": "terminal", "gps_code": "KMCO", "iata_code": "MCO", "wikipedia": "http:\/\/en.wikipedia.org\/wiki\/Orlando_International_Airport", "natlscale": 75.0, "comments": null, "wikidataid": "Q929859", "name_ar": "مطار أورلاندو الدولي", "name_bn": null, "name_de": "Orlando International Airport", "name_en": "Orlando International Airport", "name_es": "Aeropuerto Internacional de Orlando", "name_fr": "aéroport international d'Orlando", "name_el": null, "name_hi": null, "name_hu": null, "name_id": "Bandara Internasional Orlando", "name_it": "Aeroporto Internazionale di Orlando", "name_ja": "オーランド国際空港", "name_ko": "올랜도 국제공항", "name_nl": "Orlando International Airport", "name_pl": "Port lotniczy Orlando", "name_pt": "Aeroporto Internacional de Orlando", "name_ru": "Орландо", "name_sv": "Orlando International Airport", "name_tr": null, "name_vi": "Sân bay quốc tế Orlando", "name_zh": "奥兰多国际机场", "wdid_score": 4, "ne_id": 1159127009 }, "geometry": { "type": "Point", "coordinates": [ -81.307371330798489, 28.431150679113763 ] } },
{ "type": "Feature", "properties": { "scalerank": 3, "featurecla": "Airport", "type": "major", "name": "Minneapolis St. Paul Int'l", "abbrev": "MSP", "location": "terminal", "gps_code": "KMSP", "iata_code": "MSP", "wikipedia": "http:\/\/en.wikipedia.org\/wiki\/Minneapolis-Saint_Paul_International_Airport", "natlscale": 75.0, "comments": null, "wikidataid": "Q875749", "name_ar": "مطار مينابوليس-سنت بول الدولي", "name_bn": null, "name_de": "Minneapolis-Saint Paul International Airport", "name_en": "Minneapolis–Saint Paul International Airport", "name_es": "Aeropuerto Internacional de Mineápolis-Saint Paul", "name_fr": "aéroport international de Minneapolis-Saint-Paul", "name_el": null, "name_hi": null, "name_hu": null, "name_id": "Bandar Udara Internasional Minneapolis-Saint Paul", "name_it": "Aeroporto Internazionale di Minneapolis-Saint Paul", "name_ja": "ミネアポリス・セントポール国際空港", "name_ko": "미니애폴리스 세인트폴 국제공항", "name_nl": "Internationale luchthaven Minneapolis-Saint Paul", "name_pl": "Port lotniczy Minneapolis-St. Paul", "name_pt": "Aeroporto Internacional de Minneapolis-Saint Paul", "name_ru": "Международный аэропорт Миннеаполис\/Сент-Пол", "name_sv": "Minneapolis-Saint Paul International Airport", "name_tr": null, "name_vi": "Sân bay quốc tế Minneapolis−Saint Paul", "name_zh": "明尼阿波利斯－圣保罗国际机场", "wdid_score": 4, "ne_id": 1159127027 }, "geometry": { "type": "Point", "coordinates": [ -93.208100371830085, 44.882026363196815 ] } },
{ "type": "Feature", "properties": { "scalerank": 3, "featurecla": "Airport", "type": "major", "name": "Franz-Josef-Strauss", "abbrev": "MUC", "location": "terminal", "gps_code": "EDDM", "iata_code": "MUC", "wikipedia": "http:\/\/en.wikipedia.org\/wiki\/Munich_International_Airport", "natlscale": 75.0, "comments": null, "wikidataid": "Q131402", "name_ar": "مطار ميونخ الدولي", "name_bn": "মিউনিখ বিমানবন্দর", "name_de": "Flughafen München", "name_en": "Munich Airport", "name_es": "Aeropuerto Internacional de Múnich-Franz Josef Strauss", "name_fr": "aéroport international Franz-Josef-Strauss de Munich", "name_el": null, "name_hi": null, "name_hu": "Müncheni repülőtér", "name_id": "Bandar Udara München", "name_it": "Aeroporto di Monaco di Baviera", "name_ja": "ミュンヘン国際空港", "name_ko": "뮌헨 국제공항", "name_nl": "Luchthaven München", "name_pl": "Port lotniczy Monachium", "name_pt": "Aeroporto de Munique-Franz Josef Strauss", "name_ru": "Мюнхен", "name_sv": "Flughafen München Franz Josef Strauss", "name_tr": "Münih Franz Josef Strauss Havalimanı", "name_vi": "Sân bay quốc tế München Franz Josef Strauss", "name_zh": "慕尼黑机场", "wdid_score": 4, "ne_id": 1159127035 }, "geometry": { "type": "Point", "coordinates": [ 11.788062719243687, 48.353837396160849 ] } },
{ "type": "Feature", "properties": { "scalerank": 3, "featurecla": "Airport", "type": "major", "name": "Philadelphia Int'l", "abbrev": "PHL", "location": "terminal", "gps_code": "KPHL", "iata_code": "PHL", "wikipedia": "http:\/\/en.wikipedia.org\/wiki\/Philadelphia_International_Airport", "natlscale": 75.0, "comments": null, "wikidataid": "Q512128", "name_ar": "مطار فيلادلفيا الدولي", "name_bn": "ফিলাডেলফিয়া আন্তর্জাতিক বিমানবন্দর", "name_de": "Flughafen Philadelphia", "name_en": "Philadelphia International Airport", "name_es": "Aeropuerto Internacional de Filadelfia", "name_fr": "aéroport international de Philadelphie", "name_el": null, "name_hi": null, "name_hu": null, "name_id": "Bandar Udara Internasional Philadelphia", "name_it": "Aeroporto Internazionale di Filadelfia", "name_ja": "フィラデルフィア国際空港", "name_ko": "필라델피아 국제공항", "name_nl": "Philadelphia International Airport", "name_pl": "Port lotniczy Filadelfia", "name_pt": "Aeroporto Internacional de Filadélfia", "name_ru": "Международный аэропорт Филадельфии", "name_sv": "Philadelphia International Airport", "name_tr": null, "name_vi": "Sân bay quốc tế Philadelphia", "name_zh": "費城國際機場", "wdid_score": 4, "ne_id": 1159127049 }, "geometry": { "type": "Point", "coordinates": [ -75.242985767699807, 39.876087236426997 ] } },
{ "type": "Feature", "properties": { "scalerank": 3, "featurecla": "Airport", "type": "major", "name": "Sky Harbor Int'l", "abbrev": "PHX", "location": "terminal", "gps_code": "KPHX", "iata_code": "PHX", "wikipedia": "http:\/\/en.wikipedia.org\/wiki\/Phoenix_Sky_Harbor_International_Airport", "natlscale": 75.0, "comments": null, "wikidataid": "Q912916", "name_ar": "مطار فينيكس سكاي هاربر الدولي", "name_bn": null, "name_de": "Phoenix Sky Harbor International Airport", "name_en": "Phoenix Sky Harbor International Airport", "name_es": "Aeropuerto Internacional Sky Harbor", "name_fr": "aéroport international Sky Harbor de Phoenix", "name_el": null, "name_hi": null, "name_hu": null, "name_id": "Bandar Udara Internasional Sky Harbor Phoenix", "name_it": "Aeroporto Internazionale di Phoenix-Sky Harbor", "name_ja": "フェニックス・スカイハーバー国際空港", "name_ko": "피닉스 스카이 하버 국제공항", "name_nl": "Phoenix Sky Harbor International Airport", "name_pl": "port lotniczy Phoenix-Sky Harbor", "name_pt": "Aeroporto Internacional de Phoenix Sky Harbor", "name_ru": "Финикс Скай-Харбор", "name_sv": "Phoenix Sky Harbor International Airport", "name_tr": "Phoenix Sky Harbor Uluslararası Havalimanı", "name_vi": "Sân bay quốc tế Phoenix Sky Harbor", "name_zh": "鳳凰城天港國際機場", "wdid_score": 4, "ne_id": 1159127063 }, "geometry": { "type": "Point", "coordinates": [ -112.01363529772982, 33.435860763949769 ] } },
{ "type": "Feature", "properties": { "scalerank": 3, "featurecla": "Airport", "type": "major", "name": "Salt Lake City Int'l", "abbrev": "SLC", "location": "terminal", "gps_code": "KSLC", "iata_code": "SLC", "wikipedia": "http:\/\/en.wikipedia.org\/wiki\/Salt_Lake_City_International_Airport", "natlscale": 75.0, "comments": null, "wikidataid": "Q526488", "name_ar": "مطار سولت لايك سيتي الدولي", "name_bn": null, "name_de": "Salt Lake City International Airport", "name_en": "Salt Lake City International Airport", "name_es": "Aeropuerto Internacional de Salt Lake City", "name_fr": "aéroport international de Salt Lake City", "name_el": null, "name_hi": null, "name_hu": null, "name_id": "Bandar Udara Internasional Salt Lake City", "name_it": "Aeroporto Internazionale di Salt Lake City", "name_ja": "ソルトレイクシティ国際空港", "name_ko": "솔트레이크시티 국제공항", "name_nl": "Salt Lake City International Airport", "name_pl": "Port lotniczy Salt Lake City", "name_pt": "Aeroporto Internacional de Salt Lake City", "name_ru": "Солт-Лейк-Сити", "name_sv": "Salt Lake City International Airport", "name_tr": null, "name_vi": "Sân bay quốc tế Thành phố Salt Lake", "name_zh": "鹽湖城國際機場", "wdid_score": 4, "ne_id": 1159127079 }, "geometry": { "type": "Point", "coordinates": [ -111.981984879992709, 40.786729005370844 ] } },
{ "type": "Feature", "properties": { "scalerank": 3, "featurecla": "Airport", "type": "major", "name": "Lambert St Louis Int'l", "abbrev": "STL", "location": "terminal", "gps_code": "KSTL", "iata_code": "STL", "wikipedia": "http:\/\/en.wikipedia.org\/wiki\/Lambert-St._Louis_International_Airport", "natlscale": 75.0, "comments": null, "wikidataid": "Q1425838", "name_ar": "مطار سانت لويس الدولي", "name_bn": null, "name_de": "Flughafen St. Louis", "name_en": "Lambert–St. Louis International Airport", "name_es": "Aeropuerto Internacional Lambert", "name_fr": "aéroport international de Lambert-Saint-Louis", "name_el": null, "name_hi": null, "name_hu": null, "name_id": null, "name_it": "Aeroporto Internazionale Lambert-St. Louis", "name_ja": "ランバート・セントルイス国際空港", "name_ko": null, "name_nl": "Lambert–St. Louis International Airport", "name_pl": "Port lotniczy Saint Louis-Lambert", "name_pt": "Aeroporto Internacional de Lambert–St. Louis", "name_ru": "Аэропорт Сент-Луис Ламберт", "name_sv": "Lambert-St. Louis International Airport", "name_tr": null, "name_vi": "Sân bay quốc tế Lambert-St. Louis", "name_zh": "兰伯特－圣路易斯国际机场", "wdid_score": 4, "ne_id": 1159127093 }, "geometry": { "type": "Point", "coordinates": [ -90.365954535067473, 38.742716315520354 ] } },
{ "type": "Feature", "properties": { "scalerank": 3, "featurecla": "Airport", "type": "major", "name": "Okecie Int'l", "abbrev": "WAW", "location": "terminal", "gps_code": "EPWA", "iata_code": "WAW", "wikipedia": "http:\/\/en.wikipedia.org\/wiki\/Warsaw_Frederic_Chopin_Airport", "natlscale": 75.0, "comments": null, "wikidataid": "Q465071", "name_ar": "مطار وارسو فريدريك شوبان", "name_bn": null, "name_de": "Chopin-Flughafen Warschau", "name_en": "Warsaw Chopin Airport", "name_es": "Aeropuerto de Varsovia-Frédéric Chopin", "name_fr": "aéroport de Varsovie-Chopin", "name_el": null, "name_hi": null, "name_hu": "Varsó Chopin repülőtér", "name_id": "Bandar Udara Frédéric Chopin Warsawa", "name_it": "Aeroporto di Varsavia-Chopin", "name_ja": "ワルシャワ・ショパン空港", "name_ko": "바르샤바 쇼팽 공항", "name_nl": "Luchthaven Warschau Frédéric Chopin", "name_pl": "Lotnisko Chopina w Warszawie", "name_pt": "Aeroporto Frédéric Chopin de Varsóvia", "name_ru": "Варшавский аэропорт имени Фредерика Шопена", "name_sv": "Warszawa-Frédéric Chopin-flygplatsen", "name_tr": "Varşova Chopin Havalimanı", "name_vi": "Sân bay Frédéric Chopin Warszawa", "name_zh": "华沙肖邦机场", "wdid_score": 4, "ne_id": 1159127105 }, "geometry": { "type": "Point", "coordinates": [ 20.972726338358651, 52.171026749259035 ] } },
{ "type": "Feature", "properties": { "scalerank": 3, "featurecla": "Airport", "type": "major", "name": "Zurich Int'l", "abbrev": "ZRH", "location": "terminal", "gps_code": "LSZH", "iata_code": "ZRH", "wikipedia": "http:\/\/en.wikipedia.org\/wiki\/Z%C3%BCrich_Airport", "natlscale": 75.0, "comments": null, "wikidataid": "Q15114", "name_ar": "مطار زيورخ الدولي", "name_bn": "জুরিখ বিমানবন্দর", "name_de": "Flughafen Zürich", "name_en": "Zurich Airport", "name_es": "Aeropuerto Internacional de Zúrich", "name_fr": "aéroport international de Zurich", "name_el": null, "name_hi": null, "name_hu": "Zürichi repülőtér", "name_id": "Bandar Udara Internasional Zürich", "name_it": "aeroporto di Zurigo", "name_ja": "チューリッヒ空港", "name_ko": "취리히 공항", "name_nl": "Luchthaven Zürich", "name_pl": "Port lotniczy Zurych-Kloten", "name_pt": "Aeroporto de Zurique", "name_ru": "Цюрих", "name_sv": "Zürich flygplats", "name_tr": "Zürih Havalimanı", "name_vi": "Sân bay Zürich", "name_zh": "蘇黎世機場", "wdid_score": 4, "ne_id": 1159127117 }, "geometry": { "type": "Point", "coordinates": [ 8.562212795347646, 47.452389506491549 ] } },
{ "type": "Feature", "properties": { "scalerank": 3, "featurecla": "Airport", "type": "mid", "name": "Gosselies", "abbrev": "CRL", "location": "terminal", "gps_code": "EBCI", "iata_code": "CRL", "wikipedia": "http:\/\/en.wikipedia.org\/wiki\/Brussels_South_Charleroi_Airport", "natlscale": 75.0, "comments": null, "wikidataid": "Q1431012", "name_ar": "مطار بروكسل شارلروا الجنوب", "name_bn": null, "name_de": "Flughafen Brüssel-Charleroi", "name_en": "Brussels South Charleroi Airport", "name_es": "Aeropuerto de Bruselas Sur", "name_fr": "aéroport de Charleroi Bruxelles-Sud", "name_el": null, "name_hi": null, "name_hu": null, "name_id": "Bandar Udara Charleroi Brussel Selatan", "name_it": "Aeroporto di Charleroi-Bruxelles Sud", "name_ja": "ブリュッセル・サウスシャルルロワ空港", "name_ko": null, "name_nl": "Brussels South Charleroi Airport", "name_pl": "Port lotniczy Bruksela-Charleroi", "name_pt": null, "name_ru": "Брюссель-Шарлеруа", "name_sv": "Brussels South Charleroi Airport", "name_tr": null, "name_vi": null, "name_zh": "沙勒罗瓦－布鲁塞尔南机场", "wdid_score": 2, "ne_id": 1159127129 }, "geometry": { "type": "Point", "coordinates": [ 4.454373629816502, 50.457129654956681 ] } },
{ "type": "Feature", "properties": { "scalerank": 3, "featurecla": "Airport", "type": "major", "name": "Munich Freight Terminal", "abbrev": "MUCf", "location": "freight", "gps_code": "EDDMf", "iata_code": "MUCf", "wikipedia": "http:\/\/en.wikipedia.org\/wiki\/Munich_Airport", "natlscale": 75.0, "comments": null, "wikidataid": "Q131402", "name_ar": "مطار ميونخ الدولي", "name_bn": "মিউনিখ বিমানবন্দর", "name_de": "Flughafen München", "name_en": "Munich Airport", "name_es": "Aeropuerto Internacional de Múnich-Franz Josef Strauss", "name_fr": "aéroport international Franz-Josef-Strauss de Munich", "name_el": null, "name_hi": null, "name_hu": "Müncheni repülőtér", "name_id": "Bandar Udara München", "name_it": "Aeroporto di Monaco di Baviera", "name_ja": "ミュンヘン国際空港", "name_ko": "뮌헨 국제공항", "name_nl": "Luchthaven München", "name_pl": "Port lotniczy Monachium", "name_pt": "Aeroporto de Munique-Franz Josef Strauss", "name_ru": "Мюнхен", "name_sv": "Flughafen München Franz Josef Strauss", "name_tr": "Münih Franz Josef Strauss Havalimanı", "name_vi": "Sân bay quốc tế München Franz Josef Strauss", "name_zh": "慕尼黑机场", "wdid_score": 4, "ne_id": 1159127147 }, "geometry": { "type": "Point", "coordinates": [ 11.769482859365427, 48.349796407837665 ] } },
{ "type": "Feature", "properties": { "scalerank": 3, "featurecla": "Airport", "type": "major", "name": "Barcelona", "abbrev": "BCN", "location": "terminal", "gps_code": "LEBL", "iata_code": "BCN", "wikipedia": "http:\/\/en.wikipedia.org\/wiki\/Barcelona_International_Airport", "natlscale": 75.0, "comments": null, "wikidataid": "Q56973", "name_ar": "مطار برشلونة الدولي", "name_bn": null, "name_de": "Flughafen Barcelona-El Prat", "name_en": "Barcelona–El Prat Airport", "name_es": "Aeropuerto de Barcelona-El Prat", "name_fr": "aéroport international de Barcelone-El Prat", "name_el": null, "name_hi": null, "name_hu": "Barcelonai repülőtér", "name_id": "Bandar Udara Internasional Barcelona", "name_it": "Aeroporto di Barcellona", "name_ja": "バルセロナ・エル・プラット国際空港", "name_ko": "바르셀로나 엘프라트 공항", "name_nl": "Internationale Luchthaven Barcelona", "name_pl": "Port lotniczy Barcelona", "name_pt": "Aeroporto de Barcelona-El Prat", "name_ru": "Барселона — Эль-Прат", "name_sv": "Barcelonas internationella flygplats", "name_tr": "Barcelona Uluslararası Havalimanı", "name_vi": "Sân bay Barcelona", "name_zh": "巴塞罗那机场", "wdid_score": 4, "ne_id": 1159127159 }, "geometry": { "type": "Point", "coordinates": [ 2.078003349812917, 41.303155279746342 ] } },
{ "type": "Feature", "properties": { "scalerank": 3, "featurecla": "Airport", "type": "major", "name": "Ruzyn", "abbrev": "PRG", "location": "terminal", "gps_code": "LKPR", "iata_code": "PRG", "wikipedia": "http:\/\/en.wikipedia.org\/wiki\/Ruzyn%C4%9B_International_Airport", "natlscale": 75.0, "comments": null, "wikidataid": "Q99172", "name_ar": "مطار فاكلاف هافيل الدولي", "name_bn": null, "name_de": "Flughafen Prag", "name_en": "Prague Václav Havel Airport", "name_es": "Aeropuerto de Praga", "name_fr": "aéroport de Prague-Václav-Havel", "name_el": "Διεθνής αερολιμένας Πράγας «Βάτσλαβ Χάβελ»", "name_hi": null, "name_hu": "Prága-Václav Havel repülőtér", "name_id": "Bandar Udara Internasional Ruzyně", "name_it": "Aeroporto di Praga-Ruzyně", "name_ja": "ルズィニエ国際空港", "name_ko": "프라하 루지네 국제공항", "name_nl": "Luchthaven Praag-Ruzyně", "name_pl": "Port lotniczy Praga-Ruzyně", "name_pt": "Aeroporto Internacional Ruzyne", "name_ru": "Пражский аэропорт имени Вацлава Гавела", "name_sv": "Václav Havel flygplats Prag", "name_tr": "Václav Havel Havalimanı", "name_vi": "Sân bay quốc tế Ruzyně", "name_zh": "布拉格魯濟涅國際機場", "wdid_score": 4, "ne_id": 1159127171 }, "geometry": { "type": "Point", "coordinates": [ 14.267484985407632, 50.107651170367141 ] } },
{ "type": "Feature", "properties": { "scalerank": 2, "featurecla": "Airport", "type": "major", "name": "Hong Kong Int'l", "abbrev": "HKG", "location": "terminal", "gps_code": "VHHH", "iata_code": "HKG", "wikipedia": "http:\/\/en.wikipedia.org\/wiki\/Hong_Kong_International_Airport", "natlscale": 150.0, "comments": null, "wikidataid": "Q17704", "name_ar": "مطار هونغ كونغ الدولي", "name_bn": "হংকং আন্তর্জাতিক বিমানবন্দর", "name_de": "Hong Kong International Airport", "name_en": "Hong Kong International Airport", "name_es": "Aeropuerto Internacional de Hong Kong", "name_fr": "aéroport international de Hong Kong", "name_el": null, "name_hi": "हांगकांग अन्तर्राष्ट्रीय विमानक्षेत्र", "name_hu": "Hongkongi nemzetközi repülőtér", "name_id": "Bandar Udara Internasional Hong Kong", "name_it": "aeroporto internazionale di Hong Kong", "name_ja": "香港国際空港", "name_ko": "홍콩 국제공항", "name_nl": "Luchthaven Hongkong", "name_pl": "Port lotniczy Hongkong", "name_pt": "Aeroporto Internacional de Hong Kong", "name_ru": "Чхеклапкок", "name_sv": "Hong Kong International Airport", "name_tr": "Hong Kong Uluslararası Havalimanı", "name_vi": "Sân bay quốc tế Hồng Kông", "name_zh": "香港國際機場", "wdid_score": 4, "ne_id": 1159127187 }, "geometry": { "type": "Point", "coordinates": [ 113.935016387376351, 22.315332828086753 ] } },
{ "type": "Feature", "properties": { "scalerank": 2, "featurecla": "Airport", "type": "major", "name": "Taoyuan", "abbrev": "TPE", "location": "terminal", "gps_code": "RCTP", "iata_code": "TPE", "wikipedia": "http:\/\/en.wikipedia.org\/wiki\/Taiwan_Taoyuan_International_Airport", "natlscale": 150.0, "comments": null, "wikidataid": "Q44856", "name_ar": "مطار تايوان تاويوان الدولي", "name_bn": null, "name_de": "Flughafen Taiwan Taoyuan", "name_en": "Taoyuan International Airport", "name_es": "Aeropuerto Internacional de Taiwán Taoyuan", "name_fr": "aéroport international Taiwan Taoyuan", "name_el": null, "name_hi": "ताइवान ताओयुआन अन्तर्राष्ट्रीय विमानक्षेत्र", "name_hu": "Taojüan nemzetközi repülőtér", "name_id": "Bandar Udara Internasional Taoyuan Taiwan", "name_it": "Aeroporto di Taipei-Taoyuan", "name_ja": "台湾桃園国際空港", "name_ko": "타이완 타오위안 국제공항", "name_nl": "Internationale luchthaven Taiwan Taoyuan", "name_pl": "Port lotniczy Tajpej-Taiwan Taoyuan", "name_pt": "Aeroporto Internacional Chiang Kai-shek", "name_ru": "Тайвань-Таоюань", "name_sv": "Taiwan Taoyuan Internationella Flygplats", "name_tr": "Tayvan Taoyuan Uluslararası Havalimanı", "name_vi": "Sân bay quốc tế Đào Viên Đài Loan", "name_zh": "臺灣桃園國際機場", "wdid_score": 4, "ne_id": 1159127201 }, "geometry": { "type": "Point", "coordinates": [ 121.231370453323265, 25.076741104334637 ] } },
{ "type": "Feature", "properties": { "scalerank": 2, "featurecla": "Airport", "type": "major", "name": "Schiphol", "abbrev": "AMS", "location": "terminal", "gps_code": "EHAM", "iata_code": "AMS", "wikipedia": "http:\/\/en.wikipedia.org\/wiki\/Amsterdam_Schiphol_Airport", "natlscale": 150.0, "comments": null, "wikidataid": "Q9694", "name_ar": "مطار سخيبول أمستردام", "name_bn": null, "name_de": "Flughafen Schiphol", "name_en": "Amsterdam Airport Schiphol", "name_es": "Aeropuerto de Ámsterdam-Schiphol", "name_fr": "aéroport d'Amsterdam-Schiphol", "name_el": "Διεθνές Αεροδρόμιο Σκίπχολ", "name_hi": "शिफोल हवाई अड्डा", "name_hu": "Schiphol repülőtér", "name_id": "Bandar Udara Internasional Schiphol", "name_it": "aeroporto di Amsterdam-Schiphol", "name_ja": "スキポール空港", "name_ko": "스히폴 국제공항", "name_nl": "Luchthaven Schiphol", "name_pl": "Port lotniczy Amsterdam-Schiphol", "name_pt": "Aeroporto de Amsterdão Schiphol", "name_ru": "Схипхол", "name_sv": "Amsterdam-Schiphol-flygplatsen", "name_tr": "Amsterdam Schiphol Havalimanı", "name_vi": "Sân bay Amsterdam Schiphol", "name_zh": "阿姆斯特丹史基浦機場", "wdid_score": 2, "ne_id": 1159127211 }, "geometry": { "type": "Point", "coordinates": [ 4.764376932328117, 52.308932388982171 ] } },
{ "type": "Feature", "properties": { "scalerank": 2, "featurecla": "Airport", "type": "major", "name": "Singapore Changi", "abbrev": "SIN", "location": "terminal", "gps_code": "WSSS", "iata_code": "SIN", "wikipedia": "http:\/\/en.wikipedia.org\/wiki\/Singapore_Changi_Airport", "natlscale": 150.0, "comments": null, "wikidataid": "Q32159", "name_ar": "مطار شانغي سنغافورة", "name_bn": "সিঙ্গাপুর চাঙ্গি বিমানবন্দর", "name_de": "Flughafen Singapur", "name_en": "Singapore Changi Airport", "name_es": "Aeropuerto Internacional de Singapur", "name_fr": "aéroport Changi de Singapour", "name_el": null, "name_hi": "सिंगापुर चांगी अन्तर्राष्ट्रीय विमानक्षेत्र", "name_hu": "Szingapúr-Changi repülőtér", "name_id": "Bandar Udara Internasional Changi Singapura", "name_it": "Aeroporto Internazionale di Singapore Changi", "name_ja": "シンガポール・チャンギ国際空港", "name_ko": "싱가포르 창이 국제공항", "name_nl": "Internationale luchthaven Changi", "name_pl": "Port lotniczy Singapur-Changi", "name_pt": "Aeroporto de Singapura", "name_ru": "Чанги", "name_sv": "Singapore Changi Airport", "name_tr": "Singapur Changi Havalimanı", "name_vi": "Sân bay quốc tế Singapore Changi", "name_zh": "新加坡樟宜机场", "wdid_score": 4, "ne_id": 1159127223 }, "geometry": { "type": "Point", "coordinates": [ 103.986413880993325, 1.356160835281264 ] } },
{ "type": "Feature", "properties": { "scalerank": 2, "featurecla": "Airport", "type": "major", "name": "London Heathrow", "abbrev": "LHR", "location": "parking", "gps_code": "EGLL", "iata_code": "LHR", "wikipedia": "http:\/\/en.wikipedia.org\/wiki\/London_Heathrow_Airport", "natlscale": 150.0, "comments": null, "wikidataid": "Q8691", "name_ar": "مطار لندن هيثرو", "name_bn": "লন্ডন হিথ্রো বিমানবন্দর", "name_de": "Flughafen London Heathrow", "name_en": "Heathrow Airport", "name_es": "Aeropuerto de Londres-Heathrow", "name_fr": "aéroport de Londres Heathrow", "name_el": "Διεθνές Αεροδρόμιο Χίθροου", "name_hi": "लंदन हीथ्रो विमानक्षेत्र", "name_hu": "London-Heathrow-i repülőtér", "name_id": "Bandar Udara Internasional London Heathrow", "name_it": "Aeroporto di Londra-Heathrow", "name_ja": "ロンドン・ヒースロー空港", "name_ko": "런던 히드로 공항", "name_nl": "Luchthaven Londen Heathrow", "name_pl": "Port lotniczy Londyn-Heathrow", "name_pt": "Aeroporto de Londres Heathrow", "name_ru": "Хитроу", "name_sv": "London-Heathrow flygplats", "name_tr": "Heathrow Havalimanı", "name_vi": "Sân bay London Heathrow", "name_zh": "伦敦希思罗机场", "wdid_score": 4, "ne_id": 1159127237 }, "geometry": { "type": "Point", "coordinates": [ -0.453156652063309, 51.470995879993843 ] } },
{ "type": "Feature", "properties": { "scalerank": 2, "featurecla": "Airport", "type": "major", "name": "Auckland Int'l", "abbrev": "AKL", "location": "terminal", "gps_code": "NZAA", "iata_code": "AKL", "wikipedia": "http:\/\/en.wikipedia.org\/wiki\/Auckland_International_Airport", "natlscale": 150.0, "comments": null, "wikidataid": "Q45938", "name_ar": "مطار أوكلاند الدولي", "name_bn": null, "name_de": "Flughafen Auckland", "name_en": "Auckland Airport", "name_es": "Aeropuerto Internacional de Auckland", "name_fr": "aéroport d'Auckland", "name_el": null, "name_hi": null, "name_hu": null, "name_id": "Bandar Udara Internasional Auckland", "name_it": "Aeroporto di Auckland", "name_ja": "オークランド国際空港", "name_ko": "오클랜드 국제공항", "name_nl": "Luchthaven van Auckland", "name_pl": "Port lotniczy Auckland", "name_pt": "Aeroporto de Auckland", "name_ru": "Окленд", "name_sv": "Auckland International Airport", "name_tr": "Auckland Havalimanı", "name_vi": "Sân bay Auckland", "name_zh": "奧克蘭機場", "wdid_score": 4, "ne_id": 1159127251 }, "geometry": { "type": "Point", "coordinates": [ 174.791719433715173, -37.006355114281462 ] } },
{ "type": "Feature", "properties": { "scalerank": 2, "featurecla": "Airport", "type": "major", "name": "Anchorage Int'l", "abbrev": "ANC", "location": "terminal", "gps_code": "PALH", "iata_code": "ANC", "wikipedia": "http:\/\/en.wikipedia.org\/wiki\/Lake_Hood_Seaplane_Base", "natlscale": 150.0, "comments": "ok", "wikidataid": "Q767753", "name_ar": "مطار تيد ستيفنز أنكوراج الدولي", "name_bn": null, "name_de": "Flughafen Anchorage", "name_en": "Ted Stevens Anchorage International Airport", "name_es": "Aeropuerto Internacional Ted Stevens Anchorage", "name_fr": "aéroport international d'Anchorage Ted-Stevens", "name_el": "Διεθνές Αεροδρόμιο του Άνκορεϊτζ «Τεντ Στίβενς»", "name_hi": null, "name_hu": null, "name_id": "Bandar Udara Internasional Ted Stevens Anchorage", "name_it": "Aeroporto Internazionale di Anchorage-Ted Stevens", "name_ja": "テッド・スティーブンス・アンカレッジ国際空港", "name_ko": "테드 스티븐스 앵커리지 국제공항", "name_nl": "Internationale luchthaven Ted Stevens Anchorage", "name_pl": "Port lotniczy Anchorage-Ted Stevens", "name_pt": "Aeroporto Internacional Ted Stevens", "name_ru": "Анкоридж", "name_sv": "Ted Stevens Anchorage International Airport", "name_tr": null, "name_vi": "Sân bay quốc tế Ted Stevens Anchorage", "name_zh": "泰德·史蒂文斯安克雷奇國際機場", "wdid_score": 5, "ne_id": 1159127263 }, "geometry": { "type": "Point", "coordinates": [ -149.981725100632787, 61.172893674536688 ] } },
{ "type": "Feature", "properties": { "scalerank": 2, "featurecla": "Airport", "type": "major", "name": "Hartsfield-Jackson Atlanta Int'l", "abbrev": "ATL", "location": "terminal", "gps_code": "KATL", "iata_code": "ATL", "wikipedia": "http:\/\/en.wikipedia.org\/wiki\/Hartsfield-Jackson_Atlanta_International_Airport", "natlscale": 150.0, "comments": null, "wikidataid": "Q214861", "name_ar": "مطار هارتسفيلد جاكسون", "name_bn": "হার্টসফিল্ড-জ্যাকসন আটলান্টা আন্তর্জাতিক বিমানবন্দর", "name_de": "Hartsfield–Jackson Atlanta International Airport", "name_en": "Hartsfield–Jackson Atlanta International Airport", "name_es": "Aeropuerto Internacional Hartsfield-Jackson", "name_fr": "aéroport international Hartsfield-Jackson d'Atlanta", "name_el": null, "name_hi": null, "name_hu": "Hartsfield–Jackson nemzetközi repülőtér", "name_id": "Bandar Udara Internasional Hartsfield–Jackson Atlanta", "name_it": "Aeroporto Internazionale di Atlanta-Hartsfield-Jackson", "name_ja": "ハーツフィールド・ジャクソン・アトランタ国際空港", "name_ko": "하츠필드 잭슨 애틀랜타 국제공항", "name_nl": "Hartsfield-Jackson Atlanta International Airport", "name_pl": "Port lotniczy Atlanta - Hartsfield-Jackson", "name_pt": "Aeroporto Internacional de Atlanta Hartsfield-Jackson", "name_ru": "Международный аэропорт Хартсфилд-Джексон Атланта", "name_sv": "Hartsfield–Jackson Atlanta International Airport", "name_tr": "Atlanta Uluslararası Havalimanı", "name_vi": "Sân bay quốc tế Hartsfield-Jackson Atlanta", "name_zh": "哈茨菲尔德－杰克逊亚特兰大国际机场", "wdid_score": 4, "ne_id": 1159127283 }, "geometry": { "type": "Point", "coordinates": [ -84.425397433604729, 33.640529080735213 ] } },
{ "type": "Feature", "properties": { "scalerank": 2, "featurecla": "Airport", "type": "major", "name": "Beijing Capital", "abbrev": "PEK", "location": "terminal", "gps_code": "ZBAA", "iata_code": "PEK", "wikipedia": "http:\/\/en.wikipedia.org\/wiki\/Beijing_Capital_International_Airport", "natlscale": 150.0, "comments": null, "wikidataid": "Q32190", "name_ar": "مطار بكين العاصمة الدولي", "name_bn": "বেইজিং আন্তর্জাতিক বিমানবন্দর", "name_de": "Flughafen Peking", "name_en": "Beijing Capital International Airport", "name_es": "Aeropuerto Internacional de Pekín", "name_fr": "aéroport international de Pékin", "name_el": null, "name_hi": "बेइजिंग कैपिटल अन्तर्राष्ट्रीय विमानक्षेत्र", "name_hu": "Pekingi nemzetközi repülőtér", "name_id": "Bandar Udara Internasional Ibu Kota Beijing", "name_it": "aeroporto internazionale di Pechino-Capital", "name_ja": "北京首都国際空港", "name_ko": "베이징 서우두 국제공항", "name_nl": "Luchthaven Peking Capital", "name_pl": "Port lotniczy Pekin", "name_pt": "Aeroporto Internacional de Pequim", "name_ru": "Шоуду", "name_sv": "Beijing Capital International Airport", "name_tr": "Pekin Havaalanı", "name_vi": "Sân bay quốc tế Thủ Đô Bắc Kinh", "name_zh": "北京首都国际机场", "wdid_score": 4, "ne_id": 1159127293 }, "geometry": { "type": "Point", "coordinates": [ 116.588174004661028, 40.078766336331022 ] } },
{ "type": "Feature", "properties": { "scalerank": 2, "featurecla": "Airport", "type": "major", "name": "Eldorado Int'l", "abbrev": "BOG", "location": "terminal", "gps_code": "SKBO", "iata_code": "BOG", "wikipedia": "http:\/\/en.wikipedia.org\/wiki\/El_Dorado_International_Airport", "natlscale": 150.0, "comments": null, "wikidataid": "Q201785", "name_ar": "مطار إلدورادو الدولي", "name_bn": null, "name_de": "Flughafen Bogotá", "name_en": "El Dorado International Airport", "name_es": "Aeropuerto Internacional El Dorado", "name_fr": "aéroport international El Dorado", "name_el": null, "name_hi": null, "name_hu": null, "name_id": "Bandar Udara Internasional El Dorado", "name_it": "Aeroporto di Bogotà-El Dorado", "name_ja": "エルドラド国際空港", "name_ko": "엘도라도 국제공항", "name_nl": "Internationale Luchthaven El Dorado", "name_pl": "Port lotniczy Bogotá-El Dorado", "name_pt": "Aeroporto Internacional El Dorado", "name_ru": "Богота", "name_sv": "El Dorado International Airport", "name_tr": "El Dorado Uluslararası Havalimanı", "name_vi": "Sân bay quốc tế El Dorado", "name_zh": "埃尔多拉多国际机场", "wdid_score": 4, "ne_id": 1159127303 }, "geometry": { "type": "Point", "coordinates": [ -74.143371800102784, 4.69883276192097 ] } },
{ "type": "Feature", "properties": { "scalerank": 2, "featurecla": "Airport", "type": "major", "name": "Chhatrapati Shivaji Int'l", "abbrev": "BOM", "location": "terminal", "gps_code": "VABB", "iata_code": "BOM", "wikipedia": "http:\/\/en.wikipedia.org\/wiki\/Chhatrapati_Shivaji_International_Airport", "natlscale": 150.0, "comments": null, "wikidataid": "Q504368", "name_ar": "مطار تشاتراباتي شيفاجي الدولي", "name_bn": "ছত্রপতি শিবাজী আন্তর্জাতিক বিমানবন্দর", "name_de": "Flughafen Mumbai", "name_en": "Chhatrapati Shivaji International Airport", "name_es": "Aeropuerto Internacional Chhatrapati Shivaji", "name_fr": "aéroport international Chhatrapati-Shivaji", "name_el": null, "name_hi": "छत्रपति शिवाजी अंतर्राष्ट्रीय विमानक्षेत्र", "name_hu": null, "name_id": "Bandar Udara Internasional Chhatrapati Shivaji", "name_it": "Aeroporto di Mumbai", "name_ja": "チャットラパティー・シヴァージー国際空港", "name_ko": "차트라파티 시바지 국제공항", "name_nl": "Chhatrapati Shivaji International Airport", "name_pl": "Port lotniczy Chhatrapati Shivaji", "name_pt": "Aeroporto Internacional de Chhatrapati Shivaji", "name_ru": "Международный аэропорт имени Чатрапати Шиваджи", "name_sv": "Chhatrapati Shivaji internationella flygplats", "name_tr": null, "name_vi": "Sân bay quốc tế Chhatrapati Shivaji", "name_zh": "贾特拉帕蒂·希瓦吉国际机场", "wdid_score": 4, "ne_id": 1159127317 }, "geometry": { "type": "Point", "coordinates": [ 72.874563950005083, 19.095101948840245 ] } },
{ "type": "Feature", "properties": { "scalerank": 2, "featurecla": "Airport", "type": "major", "name": "Gen E L Logan Int'l", "abbrev": "BOS", "location": "terminal", "gps_code": "KBOS", "iata_code": "BOS", "wikipedia": "http:\/\/en.wikipedia.org\/wiki\/Logan_International_Airport", "natlscale": 150.0, "comments": null, "wikidataid": "Q671475", "name_ar": "مطار لوجان الدولي", "name_bn": null, "name_de": "Logan International Airport", "name_en": "Logan International Airport", "name_es": "Aeropuerto Internacional Logan", "name_fr": "aéroport international Logan", "name_el": null, "name_hi": "लोगान हवाई अड्डा", "name_hu": null, "name_id": "Bandar Udara Internasional Logan", "name_it": "Aeroporto Internazionale Generale Edward Lawrence Logan", "name_ja": "ジェネラル・エドワード・ローレンス・ローガン国際空港", "name_ko": "로건 국제공항", "name_nl": "Internationale luchthaven Boston", "name_pl": "Port lotniczy Boston", "name_pt": "Aeroporto Internacional de Boston", "name_ru": "Логан", "name_sv": "Logan International Airport", "name_tr": null, "name_vi": "Sân bay quốc tế Logan", "name_zh": "爱德华·劳伦斯·洛根将军国际机场", "wdid_score": 4, "ne_id": 1159127331 }, "geometry": { "type": "Point", "coordinates": [ -71.016406617295843, 42.366565819850564 ] } },
{ "type": "Feature", "properties": { "scalerank": 2, "featurecla": "Airport", "type": "major", "name": "Baltimore-Washington Int'l Thurgood Marshall", "abbrev": "BWI", "location": "terminal", "gps_code": "KBWI", "iata_code": "BWI", "wikipedia": "http:\/\/en.wikipedia.org\/wiki\/Baltimore-Washington_International_Thurgood_Marshall_Airport", "natlscale": 150.0, "comments": null, "wikidataid": "Q94895", "name_ar": "مطار بالتيمور واشنطن الدولي", "name_bn": null, "name_de": "Baltimore-Washington International Airport", "name_en": "Baltimore\/Washington International Thurgood Marshall Airport", "name_es": "Aeropuerto Internacional de Baltimore-Washington", "name_fr": "aéroport international Thurgood Marshall de Baltimore-Washington", "name_el": null, "name_hi": null, "name_hu": null, "name_id": null, "name_it": "Aeroporto Internazionale di Baltimora-Washington Thurgood Marshall", "name_ja": "ボルチモア・ワシントン国際空港", "name_ko": "볼티모어 워싱턴 서굿 마셜 국제공항", "name_nl": "Baltimore\/Washington International Thurgood Marshall Airport", "name_pl": "Port lotniczy Baltimore\/Waszyngton", "name_pt": "Aeroporto Internacional de Baltimore-Washington Thurgood Marshall", "name_ru": "Балтимор\/Вашингтон", "name_sv": null, "name_tr": null, "name_vi": "Sân bay quốc tế Baltimore-Washington Thurgood Marshall", "name_zh": "巴尔的摩\/华盛顿瑟古德·马歇尔国际机场", "wdid_score": 4, "ne_id": 1159127345 }, "geometry": { "type": "Point", "coordinates": [ -76.66864283524481, 39.179394358356781 ] } },
{ "type": "Feature", "properties": { "scalerank": 2, "featurecla": "Airport", "type": "major", "name": "Cairo Int'l", "abbrev": "CAI", "location": "terminal", "gps_code": "HECA", "iata_code": "CAI", "wikipedia": "http:\/\/en.wikipedia.org\/wiki\/Cairo_International_Airport", "natlscale": 150.0, "comments": null, "wikidataid": "Q461793", "name_ar": "ميناء القاهرة الجوي", "name_bn": null, "name_de": "Flughafen Kairo", "name_en": "Cairo International Airport", "name_es": "Aeropuerto Internacional de El Cairo", "name_fr": "aéroport international du Caire", "name_el": "Διεθνές Αεροδρόμιο του Καΐρου", "name_hi": null, "name_hu": "Kairói nemzetközi repülőtér", "name_id": "Bandar Udara Internasional Kairo", "name_it": "Aeroporto Internazionale del Cairo", "name_ja": "カイロ国際空港", "name_ko": "카이로 국제공항", "name_nl": "Luchthaven Caïro Internationaal", "name_pl": "Port lotniczy Kair", "name_pt": "Aeroporto Internacional do Cairo", "name_ru": "Каир", "name_sv": "Kairos flygplats", "name_tr": "Kahire Uluslararası Havalimanı", "name_vi": "Sân bay quốc tế Cairo", "name_zh": "開羅國際機場", "wdid_score": 4, "ne_id": 1159127357 }, "geometry": { "type": "Point", "coordinates": [ 31.399743006711368, 30.111990438557491 ] } },
{ "type": "Feature", "properties": { "scalerank": 2, "featurecla": "Airport", "type": "mid", "name": "Casablanca-Anfa", "abbrev": "CAS", "location": "terminal", "gps_code": "GMMC", "iata_code": "CAS", "wikipedia": "http:\/\/en.wikipedia.org\/wiki\/Casablanca-Anfa_Airport", "natlscale": 150.0, "comments": null, "wikidataid": "Q1961870", "name_ar": "مطار الدار البيضاء أنفا", "name_bn": null, "name_de": null, "name_en": "Casablanca-Anfa Airport", "name_es": null, "name_fr": "aéroport de Casablanca-Anfa", "name_el": null, "name_hi": null, "name_hu": null, "name_id": null, "name_it": "Aeroporto di Casablanca-Anfa", "name_ja": "アンファ空港", "name_ko": null, "name_nl": "Casablanca-Anfa Airport", "name_pl": "Port lotniczy Casablanca-Anfa", "name_pt": null, "name_ru": null, "name_sv": null, "name_tr": null, "name_vi": null, "name_zh": "卡薩布蘭卡-安發機場", "wdid_score": 4, "ne_id": 1159127367 }, "geometry": { "type": "Point", "coordinates": [ -7.663218807711428, 33.562788385107879 ] } },
{ "type": "Feature", "properties": { "scalerank": 2, "featurecla": "Airport", "type": "mid", "name": "Simón Bolivar Int'l", "abbrev": "CCS", "location": "terminal", "gps_code": "SVMI", "iata_code": "CCS", "wikipedia": "http:\/\/en.wikipedia.org\/wiki\/Sim%C3%B3n_Bol%C3%ADvar_International_Airport", "natlscale": 150.0, "comments": null, "wikidataid": "Q1058344", "name_ar": null, "name_bn": null, "name_de": "Flughafen Caracas", "name_en": "Simón Bolívar International Airport", "name_es": "Aeropuerto Internacional de Maiquetía Simón Bolívar", "name_fr": "aéroport international Maiquetía ~ Simón Bolívar", "name_el": null, "name_hi": "सिमोन बोलीवार अन्तर्राष्ट्रीय हवाई अड्डा", "name_hu": null, "name_id": "Bandar Udara Internasional Simon Bolivar", "name_it": "Aeroporto Internazionale Simón Bolívar", "name_ja": "シモン・ボリバル国際空港", "name_ko": "시몬 볼리바르 국제공항", "name_nl": "Aeropuerto Internacional de Maiquetía Simón Bolívar", "name_pl": "Port lotniczy Caracas", "name_pt": "Aeroporto Internacional Simón Bolívar", "name_ru": "Каракас", "name_sv": null, "name_tr": null, "name_vi": "Sân bay quốc tế Simón Bolívar", "name_zh": "迈克蒂亚西蒙·玻利瓦尔国际机场", "wdid_score": 4, "ne_id": 1159127381 }, "geometry": { "type": "Point", "coordinates": [ -67.005748807631647, 10.597354914606406 ] } },
{ "type": "Feature", "properties": { "scalerank": 2, "featurecla": "Airport", "type": "major", "name": "Cape Town Int'l", "abbrev": "CPT", "location": "terminal", "gps_code": "FACT", "iata_code": "CPT", "wikipedia": "http:\/\/en.wikipedia.org\/wiki\/Cape_Town_International_Airport", "natlscale": 150.0, "comments": null, "wikidataid": "Q854130", "name_ar": "مطار كيب تاون", "name_bn": null, "name_de": "Flughafen Kapstadt", "name_en": "Cape Town International Airport", "name_es": "Aeropuerto Internacional de la Ciudad del Cabo", "name_fr": "aéroport international du Cap", "name_el": null, "name_hi": "डी० एफ मलान हवाई अड्डा", "name_hu": null, "name_id": "Bandar Udara Internasional Cape Town", "name_it": "Aeroporto internazionale di Città del Capo", "name_ja": "ケープタウン国際空港", "name_ko": "케이프타운 국제공항", "name_nl": "Cape Town International Airport", "name_pl": "Port lotniczy Kapsztad", "name_pt": "Aeroporto Internacional da Cidade do Cabo", "name_ru": "Кейптаун", "name_sv": "Kapstadens internationella flygplats", "name_tr": null, "name_vi": "Sân bay quốc tế Cape Town", "name_zh": "开普敦国际机场", "wdid_score": 4, "ne_id": 1159127391 }, "geometry": { "type": "Point", "coordinates": [ 18.597656508313793, -33.970446612039538 ] } },
{ "type": "Feature", "properties": { "scalerank": 2, "featurecla": "Airport", "type": "major", "name": "Chengdushuang Liu", "abbrev": "CTU", "location": "terminal", "gps_code": "ZUUU", "iata_code": "CTU", "wikipedia": "http:\/\/en.wikipedia.org\/wiki\/Chengdu_Shuangliu_International_Airport", "natlscale": 150.0, "comments": null, "wikidataid": "Q387560", "name_ar": "مطار تشنغدو شوانغليو الدولي", "name_bn": null, "name_de": "Flughafen Chengdu", "name_en": "Chengdu Shuangliu International Airport", "name_es": "Aeropuerto internacional de Chengdu", "name_fr": "aéroport international de Chengdu-Shuangliu", "name_el": null, "name_hi": null, "name_hu": null, "name_id": "Bandar Udara Internasional Shuangliu Chengdu", "name_it": "Aeroporto di Chengdu-Shuangliu", "name_ja": "成都双流国際空港", "name_ko": "청두 솽류 국제공항", "name_nl": "Internationale luchthaven Chengdu Shuangliu", "name_pl": "Port lotniczy Chengdu-Shuangliu", "name_pt": "Aeroporto Internacional de Chengdu Shuangliu", "name_ru": "Международный аэропорт Шуанлю", "name_sv": "Chengdu Shuangliu International Airport", "name_tr": null, "name_vi": "Sân bay quốc tế Song Lưu Thành Đô", "name_zh": "成都双流国际机场", "wdid_score": 4, "ne_id": 1159127407 }, "geometry": { "type": "Point", "coordinates": [ 103.956136481695012, 30.581071264746427 ] } },
{ "type": "Feature", "properties": { "scalerank": 2, "featurecla": "Airport", "type": "major", "name": "Indira Gandhi Int'l", "abbrev": "DEL", "location": "terminal", "gps_code": "VIDP", "iata_code": "DEL", "wikipedia": "http:\/\/en.wikipedia.org\/wiki\/Indira_Gandhi_International_Airport", "natlscale": 150.0, "comments": null, "wikidataid": "Q821275", "name_ar": "مطار انديرا غاندي الدولي", "name_bn": "ইন্দিরা গান্ধী আন্তর্জাতিক বিমানবন্দর", "name_de": "Indira Gandhi International Airport", "name_en": "Indira Gandhi International Airport", "name_es": "Aeropuerto Internacional Indira Gandhi", "name_fr": "aéroport international Indira-Gandhi", "name_el": null, "name_hi": "इंदिरा गांधी अन्तर्राष्ट्रीय विमानक्षेत्र", "name_hu": null, "name_id": "Bandar Udara Internasional Indira Gandhi", "name_it": "Aeroporto Internazionale Indira Gandhi", "name_ja": "インディラ・ガンディー国際空港", "name_ko": "인디라 간디 국제공항", "name_nl": "Indira Gandhi International Airport", "name_pl": "Port lotniczy Indira Gandhi", "name_pt": "Aeroporto Internacional Indira Gandhi", "name_ru": "Международный аэропорт имени Индиры Ганди", "name_sv": "Indira Gandhi internationella flygplats", "name_tr": null, "name_vi": "Sân bay quốc tế Indira Gandhi", "name_zh": "英迪拉·甘地国际机场", "wdid_score": 4, "ne_id": 1159127419 }, "geometry": { "type": "Point", "coordinates": [ 77.087836256533194, 28.559203976058605 ] } },
{ "type": "Feature", "properties": { "scalerank": 2, "featurecla": "Airport", "type": "major", "name": "Denver Int'l", "abbrev": "DEN", "location": "terminal", "gps_code": "KDEN", "iata_code": "DEN", "wikipedia": "http:\/\/en.wikipedia.org\/wiki\/Denver_International_Airport", "natlscale": 150.0, "comments": null, "wikidataid": "Q330015", "name_ar": "مطار دنفر الدولي", "name_bn": "ডেনভার আন্তর্জাতিক বিমানবন্দর", "name_de": "Denver International Airport", "name_en": "Denver International Airport", "name_es": "Aeropuerto Internacional de Denver", "name_fr": "aéroport international de Denver", "name_el": null, "name_hi": null, "name_hu": "Denveri nemzetközi repülőtér", "name_id": "Bandar Udara Internasional Denver", "name_it": "Aeroporto Internazionale di Denver", "name_ja": "デンバー国際空港", "name_ko": "덴버 국제공항", "name_nl": "internationale luchthaven van Denver", "name_pl": "Port lotniczy Denver", "name_pt": "Aeroporto Internacional de Denver", "name_ru": "Денвер", "name_sv": "Denver International Airport", "name_tr": "Denver Uluslararası Havalimanı", "name_vi": "Sân bay quốc tế Denver", "name_zh": "丹佛國際機場", "wdid_score": 4, "ne_id": 1159127425 }, "geometry": { "type": "Point", "coordinates": [ -104.673797338541974, 39.849461388150949 ] } },
{ "type": "Feature", "properties": { "scalerank": 2, "featurecla": "Airport", "type": "major", "name": "Dallas-Ft. Worth Int'l", "abbrev": "DFW", "location": "parking", "gps_code": "KDFW", "iata_code": "DFW", "wikipedia": "http:\/\/en.wikipedia.org\/wiki\/Dallas-Fort_Worth_International_Airport", "natlscale": 150.0, "comments": null, "wikidataid": "Q459096", "name_ar": "مطار دالاس فورت ورث الدولي", "name_bn": "ডালাস\/ফোর্ট ওয়ার্থ আন্তর্জাতিক বিমানবন্দর", "name_de": "Flughafen Dallas\/Fort Worth", "name_en": "Dallas\/Fort Worth International Airport", "name_es": "Aeropuerto Internacional de Dallas-Fort Worth", "name_fr": "aéroport international de Dallas-Fort Worth", "name_el": null, "name_hi": "डलास हवाई अड्डा", "name_hu": null, "name_id": "Bandar Udara Internasional Dallas-Fort Worth", "name_it": "Aeroporto Internazionale di Dallas - Fort Worth", "name_ja": "ダラス・フォートワース国際空港", "name_ko": "댈러스 포트워스 국제공항", "name_nl": "Dallas-Fort Worth International Airport", "name_pl": "Port lotniczy Dallas-Fort Worth", "name_pt": "Aeroporto Internacional de Dallas\/Fort Worth", "name_ru": "Даллас\/Форт-Уэрт", "name_sv": "Dallas\/Fort Worth International Airport", "name_tr": "Dallas\/Fort Worth Uluslararası Havalimanı", "name_vi": "Sân bay quốc tế Dallas-Forth Worth", "name_zh": "达拉斯－沃思堡国际机场", "wdid_score": 4, "ne_id": 1159127437 }, "geometry": { "type": "Point", "coordinates": [ -97.040371074114418, 32.900150559481553 ] } },
{ "type": "Feature", "properties": { "scalerank": 2, "featurecla": "Airport", "type": "major", "name": "Don Muang Int'l", "abbrev": "DMK", "location": "terminal", "gps_code": "VTBD", "iata_code": "DMK", "wikipedia": "http:\/\/en.wikipedia.org\/wiki\/Don_Mueang_International_Airport", "natlscale": 150.0, "comments": null, "wikidataid": "Q1046755", "name_ar": "مطار دون موينغ", "name_bn": null, "name_de": "Flughafen Bangkok-Don Mueang", "name_en": "Don Mueang International Airport", "name_es": "Aeropuerto Internacional Don Mueang", "name_fr": "aéroport international Don Muang", "name_el": null, "name_hi": null, "name_hu": null, "name_id": "Bandar Udara Internasional Don Mueang", "name_it": "Aeroporto di Bangkok-Don Muang", "name_ja": "ドンムアン空港", "name_ko": "돈므앙 국제공항", "name_nl": "Internationale Luchthaven Don Mueang", "name_pl": "Port lotniczy Bangkok-Don Muang", "name_pt": "Aeroporto Internacional de Don Mueang", "name_ru": "Дон Мыанг", "name_sv": "Don Mueang internationella flygplats", "name_tr": null, "name_vi": "Sân bay quốc tế Don Mueang", "name_zh": "廊曼国际机场", "wdid_score": 4, "ne_id": 1159127447 }, "geometry": { "type": "Point", "coordinates": [ 100.602578626505135, 13.920276601034733 ] } },
{ "type": "Feature", "properties": { "scalerank": 2, "featurecla": "Airport", "type": "major", "name": "Dubai Int'l", "abbrev": "DXB", "location": "terminal", "gps_code": "OMDB", "iata_code": "DXB", "wikipedia": "http:\/\/en.wikipedia.org\/wiki\/Dubai_International_Airport", "natlscale": 150.0, "comments": null, "wikidataid": "Q193439", "name_ar": "مطار دبي الدولي", "name_bn": "দুবাই আন্তর্জাতিক বিমানবন্দর", "name_de": "Flughafen Dubai", "name_en": "Dubai International Airport", "name_es": "Aeropuerto Internacional de Dubái", "name_fr": "aéroport international de Dubaï", "name_el": "Διεθνές Αεροδρόμιο του Ντουμπάι", "name_hi": "दुबई अन्तर्राष्ट्रीय विमानक्षेत्र", "name_hu": "Dubaji nemzetközi repülőtér", "name_id": "Bandar Udara Internasional Dubai", "name_it": "Aeroporto Internazionale di Dubai", "name_ja": "ドバイ国際空港", "name_ko": "두바이 국제공항", "name_nl": "Dubai International Airport", "name_pl": "Port lotniczy Dubaj", "name_pt": "Aeroporto Internacional de Dubai", "name_ru": "Дубай", "name_sv": "Dubai International Airport", "name_tr": "Dubai Uluslararası Havalimanı", "name_vi": "Sân bay quốc tế Dubai", "name_zh": "迪拜国际机场", "wdid_score": 4, "ne_id": 1159127459 }, "geometry": { "type": "Point", "coordinates": [ 55.35407691722429, 25.252565593818161 ] } },
{ "type": "Feature", "properties": { "scalerank": 2, "featurecla": "Airport", "type": "major", "name": "Newark Int'l", "abbrev": "EWR", "location": "terminal", "gps_code": "KEWR", "iata_code": "EWR", "wikipedia": "http:\/\/en.wikipedia.org\/wiki\/Newark_Liberty_International_Airport", "natlscale": 150.0, "comments": null, "wikidataid": "Q466786", "name_ar": "مطار نيوآرك ليبرتي الدولي", "name_bn": null, "name_de": "Newark Liberty International Airport", "name_en": "Newark Liberty International Airport", "name_es": "Aeropuerto Internacional Libertad de Newark", "name_fr": "aéroport international Newark Liberty", "name_el": null, "name_hi": null, "name_hu": null, "name_id": "Bandar Udara Internasional Liberty Newark", "name_it": "Aeroporto Internazionale di Newark-Liberty", "name_ja": "ニューアーク・リバティー国際空港", "name_ko": "뉴어크 리버티 국제공항", "name_nl": "Newark Liberty International Airport", "name_pl": "Port lotniczy Newark-Liberty", "name_pt": "Aeroporto Internacional de Newark", "name_ru": "Ньюарк", "name_sv": "Newark Liberty International Airport", "name_tr": null, "name_vi": "Sân bay quốc tế Newark Liberty", "name_zh": "紐華克自由國際機場", "wdid_score": 4, "ne_id": 1159127471 }, "geometry": { "type": "Point", "coordinates": [ -74.177147279670606, 40.690479827892922 ] } },
{ "type": "Feature", "properties": { "scalerank": 2, "featurecla": "Airport", "type": "major", "name": "Ministro Pistarini Int'l", "abbrev": "EZE", "location": "terminal", "gps_code": "SAEZ", "iata_code": "EZE", "wikipedia": "http:\/\/en.wikipedia.org\/wiki\/Ministro_Pistarini_International_Airport", "natlscale": 150.0, "comments": null, "wikidataid": "Q384788", "name_ar": "مطار الوزير بيستارينيي الدولي", "name_bn": null, "name_de": "Flughafen Buenos Aires-Ezeiza", "name_en": "Ministro Pistarini International Airport", "name_es": "Aeropuerto Internacional Ministro Pistarini", "name_fr": "aéroport international Ezeiza", "name_el": null, "name_hi": "मिनिस्ट्रो पिस्तारिनी हवाई अड्डा", "name_hu": null, "name_id": "Bandar Udara Internasional Ministro Pistarini", "name_it": "Aeroporto di Buenos Aires-Ministro Pistarini", "name_ja": "エセイサ国際空港", "name_ko": "미니스토로 피스타리니 국제공항", "name_nl": "Luchthaven Buenos Aires", "name_pl": "Port lotniczy Buenos Aires-Ezeiza", "name_pt": "Aeroporto Internacional Ministro Pistarini", "name_ru": "Международный аэропорт имени министра Пистарини", "name_sv": "Buenos Aires - Ministro Pistarini International Airport", "name_tr": null, "name_vi": "Sân bay quốc tế Ministro Pistarini", "name_zh": "埃塞萨皮斯塔里尼部长国际机场", "wdid_score": 4, "ne_id": 1159127481 }, "geometry": { "type": "Point", "coordinates": [ -58.541245693938222, -34.813646938032321 ] } },
{ "type": "Feature", "properties": { "scalerank": 2, "featurecla": "Airport", "type": "major", "name": "Fort Lauderdale Hollywood Int'l", "abbrev": "FLL", "location": "terminal", "gps_code": "KFLL", "iata_code": "FLL", "wikipedia": "http:\/\/en.wikipedia.org\/wiki\/Fort_Lauderdale-Hollywood_International_Airport", "natlscale": 150.0, "comments": null, "wikidataid": "Q635361", "name_ar": null, "name_bn": null, "name_de": "Flughafen Fort Lauderdale", "name_en": "Fort Lauderdale–Hollywood International Airport", "name_es": "Aeropuerto Internacional de Fort Lauderdale-Hollywood", "name_fr": "aéroport international de Fort Lauderdale-Hollywood", "name_el": null, "name_hi": null, "name_hu": null, "name_id": "Bandar Udara Internasional Hollywood-Fort Lauderdale", "name_it": "Aeroporto Internazionale di Fort Lauderdale-Hollywood", "name_ja": "フォートローダーデール・ハリウッド国際空港", "name_ko": "포트로더데일 할리우드 국제공항", "name_nl": "Fort Lauderdale-Hollywood International Airport", "name_pl": "Port lotniczy Fort Lauderdale\/Hollywood", "name_pt": "Aeroporto Internacional de Fort Lauderdale-Hollywood", "name_ru": "Форт-Лодердейл\/Холливуд", "name_sv": "Fort Lauderdale-Hollywood International Airport", "name_tr": null, "name_vi": "Sân bay quốc tế Fort Lauderdale – Hollywood", "name_zh": "劳德代尔堡－好莱坞国际机场", "wdid_score": 4, "ne_id": 1159127493 }, "geometry": { "type": "Point", "coordinates": [ -80.145258846518914, 26.071709574682728 ] } },
{ "type": "Feature", "properties": { "scalerank": 2, "featurecla": "Airport", "type": "major", "name": "George Bush Intercontinental", "abbrev": "IAH", "location": "terminal", "gps_code": "KIAH", "iata_code": "IAH", "wikipedia": "http:\/\/en.wikipedia.org\/wiki\/George_Bush_Intercontinental_Airport", "natlscale": 150.0, "comments": null, "wikidataid": "Q744748", "name_ar": "مطار جورج بوش الدولي", "name_bn": null, "name_de": "George Bush Intercontinental Airport", "name_en": "George Bush Intercontinental Airport", "name_es": "Aeropuerto Intercontinental George Bush", "name_fr": "aéroport intercontinental George-Bush de Houston", "name_el": null, "name_hi": null, "name_hu": null, "name_id": "Bandar Udara Interkontinental George Bush", "name_it": "Aeroporto Intercontinentale di Houston - George Bush", "name_ja": "ジョージ・ブッシュ・インターコンチネンタル空港", "name_ko": "조지 부시 인터콘티넨털 공항", "name_nl": "George Bush Intercontinental Airport", "name_pl": "Port lotniczy Houston-George Bush", "name_pt": "Aeroporto Intercontinental George Bush", "name_ru": "Хьюстон Интерконтинентал", "name_sv": "George Bush Intercontinental Airport", "name_tr": "George Bush Kıtalararası Havalimanı", "name_vi": "Sân bay liên lục địa George Bush", "name_zh": "喬治·布什洲際機場", "wdid_score": 4, "ne_id": 1159127507 }, "geometry": { "type": "Point", "coordinates": [ -95.333704791294664, 29.986590903490701 ] } },
{ "type": "Feature", "properties": { "scalerank": 2, "featurecla": "Airport", "type": "major", "name": "Atatürk Hava Limani", "abbrev": "IST", "location": "terminal", "gps_code": "LTBA", "iata_code": "IST", "wikipedia": "http:\/\/en.wikipedia.org\/wiki\/Atat%C3%BCrk_International_Airport", "natlscale": 150.0, "comments": "???", "wikidataid": "Q86473", "name_ar": "مطار إسطنبول أتاتورك", "name_bn": "আতাতুর্ক আন্তর্জাতিক বিমানবন্দর", "name_de": "Flughafen Istanbul-Atatürk", "name_en": "Atatürk International Airport", "name_es": "Aeropuerto Atatürk de Estambul", "name_fr": "aéroport Atatürk d'Istanbul", "name_el": "Διεθνές Αεροδρόμιο Ατατούρκ", "name_hi": "इस्तांबुल अतातुर्क विमानक्षेत्र", "name_hu": "Atatürk nemzetközi repülőtér", "name_id": "Bandar Udara Internasional Ataturk", "name_it": "Aeroporto di Istanbul - Atatürk", "name_ja": "アタテュルク国際空港", "name_ko": "아타튀르크 국제공항", "name_nl": "Luchthaven Istanbul Atatürk", "name_pl": "Port lotniczy Stambuł-Atatürk", "name_pt": "Aeroporto de Istambul Atatürk", "name_ru": "аэропорт имени Ататюрка", "name_sv": "Atatürk International Airport", "name_tr": "Atatürk Havalimanı", "name_vi": "Sân bay quốc tế Atatürk", "name_zh": "阿塔图尔克国际机场", "wdid_score": 2, "ne_id": 1159127517 }, "geometry": { "type": "Point", "coordinates": [ 28.819549308789298, 40.977838817779705 ] } },
{ "type": "Feature", "properties": { "scalerank": 2, "featurecla": "Airport", "type": "major", "name": "OR Tambo Int'l", "abbrev": "JNB", "location": "terminal", "gps_code": "FAJS", "iata_code": "JNB", "wikipedia": "http:\/\/en.wikipedia.org\/wiki\/OR_Tambo_International_Airport", "natlscale": 150.0, "comments": null, "wikidataid": "Q821750", "name_ar": "مطار أوليفر ريجنالد تامبو", "name_bn": null, "name_de": "Flughafen O. R. Tambo", "name_en": "OR Tambo International Airport", "name_es": "Aeropuerto Internacional de Johannesburgo-Oliver Reginald Tambo", "name_fr": "aéroport international OR Tambo", "name_el": null, "name_hi": "जान स्मट्स हवाई अड्डा", "name_hu": "OR Tambo nemzetközi repülőtér", "name_id": "Bandar Udara Internasional OR Tambo", "name_it": "Aeroporto Internazionale OR Tambo", "name_ja": "ヨハネスブルグ国際空港", "name_ko": "OR 탐보 국제공항", "name_nl": "OR Tambo International Airport", "name_pl": "Port lotniczy Johannesburg", "name_pt": "Aeroporto Internacional Oliver Tambo", "name_ru": "Международный аэропорт имени О. Р. Тамбо", "name_sv": "OR Tambo internationella flygplats", "name_tr": "O. R. Tambo Uluslararası Havalimanı", "name_vi": "Sân bay quốc tế OR Tambo", "name_zh": "奥利弗·坦博国际机场", "wdid_score": 4, "ne_id": 1159127529 }, "geometry": { "type": "Point", "coordinates": [ 28.231988564874079, -26.132095399488719 ] } },
{ "type": "Feature", "properties": { "scalerank": 2, "featurecla": "Airport", "type": "mid", "name": "Juneau Int'l", "abbrev": "JNU", "location": "terminal", "gps_code": "PAJN", "iata_code": "JNU", "wikipedia": "http:\/\/en.wikipedia.org\/wiki\/Juneau_International_Airport", "natlscale": 150.0, "comments": null, "wikidataid": "Q2505424", "name_ar": null, "name_bn": null, "name_de": "Internationaler Flughafen Juneau", "name_en": "Juneau International Airport", "name_es": "Aeropuerto Internacional de Juneau", "name_fr": null, "name_el": null, "name_hi": null, "name_hu": null, "name_id": "Bandar Udara Internasional Juneau", "name_it": null, "name_ja": "ジュノー国際空港", "name_ko": null, "name_nl": null, "name_pl": null, "name_pt": null, "name_ru": "Джуно", "name_sv": null, "name_tr": null, "name_vi": null, "name_zh": null, "wdid_score": 4, "ne_id": 1159127539 }, "geometry": { "type": "Point", "coordinates": [ -134.583573037872412, 58.358944104595075 ] } },
{ "type": "Feature", "properties": { "scalerank": 2, "featurecla": "Airport", "type": "major", "name": "Los Angeles Int'l", "abbrev": "LAX", "location": "terminal", "gps_code": "KLAX", "iata_code": "LAX", "wikipedia": "http:\/\/en.wikipedia.org\/wiki\/Los_Angeles_International_Airport", "natlscale": 150.0, "comments": null, "wikidataid": "Q8731", "name_ar": "مطار لوس أنجلوس الدولي", "name_bn": "লস অ্যাঞ্জেলেস আন্তর্জাতিক বিমানবন্দর", "name_de": "Los Angeles International Airport", "name_en": "Los Angeles International Airport", "name_es": "Aeropuerto Internacional de Los Ángeles", "name_fr": "aéroport international de Los Angeles", "name_el": "Διεθνές αεροδρόμιο του Λος Αντζελες", "name_hi": null, "name_hu": "Los Angeles-i nemzetközi repülőtér", "name_id": "Bandar Udara Internasional Los Angeles", "name_it": "Aeroporto Internazionale di Los Angeles", "name_ja": "ロサンゼルス国際空港", "name_ko": "로스앤젤레스 국제공항", "name_nl": "internationale luchthaven van Los Angeles", "name_pl": "Port lotniczy Los Angeles", "name_pt": "Aeroporto Internacional de Los Angeles", "name_ru": "Лос-Анджелес", "name_sv": "Los Angeles International Airport", "name_tr": "Los Angeles Uluslararası Havalimanı", "name_vi": "Sân bay quốc tế Los Angeles", "name_zh": "洛杉磯國際機場", "wdid_score": 4, "ne_id": 1159127551 }, "geometry": { "type": "Point", "coordinates": [ -118.402468548521981, 33.944174254358572 ] } },
{ "type": "Feature", "properties": { "scalerank": 2, "featurecla": "Airport", "type": "major", "name": "Linate", "abbrev": "LIN", "location": "terminal", "gps_code": "LIML", "iata_code": "LIN", "wikipedia": "http:\/\/en.wikipedia.org\/wiki\/Linate_Airport", "natlscale": 150.0, "comments": null, "wikidataid": "Q828386", "name_ar": "مطار ليناتي", "name_bn": null, "name_de": "Flughafen Mailand-Linate", "name_en": "Linate Airport", "name_es": "Aeropuerto de Milán-Linate", "name_fr": "aéroport de Milan Linate", "name_el": null, "name_hi": null, "name_hu": "Milánó-Linatei repülőtér", "name_id": "Bandar Udara Internasional Linate", "name_it": "aeroporto di Milano-Linate", "name_ja": "ミラノ・リナーテ国際空港", "name_ko": null, "name_nl": "Luchthaven Milaan-Linate", "name_pl": "Port lotniczy Mediolan-Linate", "name_pt": "Aeroporto de Milão-Linate", "name_ru": "Линате", "name_sv": "Milano-Linate flygplats", "name_tr": null, "name_vi": "Sân bay Milano-Linate", "name_zh": "連尼治機場", "wdid_score": 4, "ne_id": 1159127561 }, "geometry": { "type": "Point", "coordinates": [ 9.279966296910612, 45.460393845625219 ] } },
{ "type": "Feature", "properties": { "scalerank": 2, "featurecla": "Airport", "type": "major", "name": "Melbourne Int'l", "abbrev": "MEL", "location": "terminal", "gps_code": "YMML", "iata_code": "MEL", "wikipedia": "http:\/\/en.wikipedia.org\/wiki\/Melbourne_Airport", "natlscale": 150.0, "comments": null, "wikidataid": "Q733738", "name_ar": "مطار ملبورن الدولي", "name_bn": null, "name_de": "Flughafen Melbourne", "name_en": "Melbourne Airport", "name_es": "Aeropuerto Internacional de Melbourne", "name_fr": "aéroport de Melbourne", "name_el": null, "name_hi": null, "name_hu": null, "name_id": "Bandar Udara Internasional Melbourne", "name_it": "Aeroporto di Melbourne", "name_ja": "メルボルン空港", "name_ko": "멜버른 공항", "name_nl": "Melbourne Airport", "name_pl": "Port lotniczy Melbourne", "name_pt": "Aeroporto de Melbourne", "name_ru": "Мельбурн", "name_sv": "Melbourne Airport", "name_tr": null, "name_vi": "Sân bay Melbourne", "name_zh": "墨爾本機場", "wdid_score": 4, "ne_id": 1159127571 }, "geometry": { "type": "Point", "coordinates": [ 144.84899809113125, -37.669941196789267 ] } },
{ "type": "Feature", "properties": { "scalerank": 2, "featurecla": "Airport", "type": "major", "name": "Lic Benito Juarez Int'l", "abbrev": "MEX", "location": "terminal", "gps_code": "MMMX", "iata_code": "MEX", "wikipedia": "http:\/\/en.wikipedia.org\/wiki\/Mexico_City_International_Airport", "natlscale": 150.0, "comments": null, "wikidataid": "Q860559", "name_ar": "مطار مكسيكو الدولي", "name_bn": null, "name_de": "Flughafen Mexiko-Stadt", "name_en": "Mexico City International Airport", "name_es": "Aeropuerto Internacional de la Ciudad de México", "name_fr": "aéroport international de Mexico", "name_el": null, "name_hi": null, "name_hu": null, "name_id": "Bandar Udara Internasional Kota Meksiko", "name_it": "Aeroporto Internazionale di Città del Messico", "name_ja": "メキシコ・シティ国際空港", "name_ko": "멕시코시티 국제공항", "name_nl": "Internationale Luchthaven Benito Juárez", "name_pl": "Port lotniczy Meksyk-Benito Juarez", "name_pt": "Aeroporto Internacional da Cidade do México", "name_ru": "Мехико", "name_sv": "Benito Juárez International Airport", "name_tr": null, "name_vi": "Sân bay quốc tế Thành phố Mexico", "name_zh": "墨西哥城贝尼托·胡亚雷斯国际机场", "wdid_score": 4, "ne_id": 1159127585 }, "geometry": { "type": "Point", "coordinates": [ -99.082607951423924, 19.435469572049442 ] } },
{ "type": "Feature", "properties": { "scalerank": 2, "featurecla": "Airport", "type": "major", "name": "Ninoy Aquino Int'l", "abbrev": "MNL", "location": "terminal", "gps_code": "RPLL", "iata_code": "MNL", "wikipedia": "http:\/\/en.wikipedia.org\/wiki\/Ninoy_Aquino_International_Airport", "natlscale": 150.0, "comments": null, "wikidataid": "Q86446", "name_ar": "مطار نينوي أكوينو الدولي", "name_bn": null, "name_de": "Ninoy Aquino International Airport", "name_en": "Ninoy Aquino International Airport", "name_es": "Aeropuerto Internacional Ninoy Aquino", "name_fr": "aéroport international Ninoy-Aquino", "name_el": null, "name_hi": "निनॉय एक्विनो अन्तर्राष्ट्रीय विमानक्षेत्र", "name_hu": null, "name_id": "Bandar Udara Internasional Ninoy Aquino", "name_it": "aeroporto Internazionale Ninoy Aquino", "name_ja": "ニノイ・アキノ国際空港", "name_ko": "니노이 아키노 국제공항", "name_nl": "Ninoy Aquino International Airport", "name_pl": "Port lotniczy Manila", "name_pt": "Aeroporto Internacional Ninoy Aquino", "name_ru": "Манила", "name_sv": "Ninoy Aquino International Airport", "name_tr": null, "name_vi": "Sân bay quốc tế Ninoy Aquino", "name_zh": "尼诺伊·阿基诺国际机场", "wdid_score": 4, "ne_id": 1159127591 }, "geometry": { "type": "Point", "coordinates": [ 121.004122083437466, 14.506832376296721 ] } },
{ "type": "Feature", "properties": { "scalerank": 2, "featurecla": "Airport", "type": "major", "name": "Jomo Kenyatta Int'l", "abbrev": "NBO", "location": "terminal", "gps_code": "HKJK", "iata_code": "NBO", "wikipedia": "http:\/\/en.wikipedia.org\/wiki\/Jomo_Kenyatta_International_Airport", "natlscale": 150.0, "comments": null, "wikidataid": "Q206349", "name_ar": "مطار جومو كينياتا", "name_bn": null, "name_de": "Flughafen Jomo Kenyatta International", "name_en": "Jomo Kenyatta International Airport", "name_es": "Aeropuerto Internacional Jomo Kenyatta", "name_fr": "aéroport international Jomo Kenyatta", "name_el": null, "name_hi": "जोमो केन्याटा हवाई अड्डा", "name_hu": "Jomo Kenyatta nemzetközi repülőtér", "name_id": "Bandar Udara Internasional Jomo Kenyatta", "name_it": "Aeroporto Internazionale Jomo Kenyatta", "name_ja": "ジョモ・ケニヤッタ国際空港", "name_ko": "조모 케냐타 국제공항", "name_nl": "Luchthaven Jomo Kenyatta Internationaal", "name_pl": "Port lotniczy Jomo Kenyatta", "name_pt": "Aeroporto Internacional Jomo Kenyatta", "name_ru": "Найроби", "name_sv": "Jomo Kenyatta internationella flygplats", "name_tr": "Jomo Kenyatta Uluslararası Havalimanı", "name_vi": "Sân bay quốc tế Jomo Kenyatta", "name_zh": "乔莫·肯雅塔国际机场", "wdid_score": 4, "ne_id": 1159127605 }, "geometry": { "type": "Point", "coordinates": [ 36.925088749036547, -1.330529643506341 ] } },
{ "type": "Feature", "properties": { "scalerank": 2, "featurecla": "Airport", "type": "major", "name": "Honolulu Int'l", "abbrev": "HNL", "location": "terminal", "gps_code": "PHNL", "iata_code": "HNL", "wikipedia": "http:\/\/en.wikipedia.org\/wiki\/Honolulu_International_Airport", "natlscale": 150.0, "comments": null, "wikidataid": "Q531178", "name_ar": "مطار هونولولو الدولي", "name_bn": null, "name_de": "Honolulu International Airport", "name_en": "Honolulu International Airport", "name_es": "Aeropuerto Internacional de Honolulu", "name_fr": "aéroport international d'Honolulu", "name_el": null, "name_hi": null, "name_hu": null, "name_id": "Bandar Udara Internasional Honolulu", "name_it": "Aeroporto Internazionale di Honolulu", "name_ja": "ホノルル国際空港", "name_ko": "호놀룰루 국제공항", "name_nl": "Honolulu International Airport", "name_pl": "Port lotniczy Honolulu", "name_pt": "Aeroporto Internacional de Honolulu", "name_ru": "Гонолулу", "name_sv": "Honolulu International Airport", "name_tr": null, "name_vi": "Sân bay quốc tế Honolulu", "name_zh": "檀香山國際機場", "wdid_score": 4, "ne_id": 1159127617 }, "geometry": { "type": "Point", "coordinates": [ -157.919783173754752, 21.332022315023991 ] } },
{ "type": "Feature", "properties": { "scalerank": 2, "featurecla": "Airport", "type": "major", "name": "Chicago O'Hare Int'l", "abbrev": "ORD", "location": "terminal", "gps_code": "KORD", "iata_code": "ORD", "wikipedia": "http:\/\/en.wikipedia.org\/wiki\/O'Hare_International_Airport", "natlscale": 150.0, "comments": null, "wikidataid": "Q213717", "name_ar": "مطار أوهير الدولي", "name_bn": null, "name_de": "Chicago O’Hare International Airport", "name_en": "O'Hare International Airport", "name_es": "Aeropuerto Internacional O'Hare", "name_fr": "aéroport international O'Hare de Chicago", "name_el": "Διεθνές Αεροδρόμιο Ο΄Χερ", "name_hi": "ओहेर् अन्तरराष्ट्रीय विमानाश्रय", "name_hu": "O’Hare nemzetközi repülőtér", "name_id": "Bandar Udara Internasional O'Hare", "name_it": "Aeroporto Internazionale di Chicago - O'Hare", "name_ja": "シカゴ・オヘア国際空港", "name_ko": "오헤어 국제공항", "name_nl": "O'Hare International Airport", "name_pl": "Port lotniczy Chicago-O'Hare", "name_pt": "Aeroporto Internacional O'Hare", "name_ru": "Международный аэропорт О’Хара", "name_sv": "O'Hare International Airport", "name_tr": "O'Hare Uluslararası Havalimanı", "name_vi": "Sân bay Quốc tế O'Hare", "name_zh": "奥黑尔国际机场", "wdid_score": 4, "ne_id": 1159127621 }, "geometry": { "type": "Point", "coordinates": [ -87.905134390650034, 41.976529102380312 ] } },
{ "type": "Feature", "properties": { "scalerank": 2, "featurecla": "Airport", "type": "major", "name": "King Khalid Int'l", "abbrev": "RUH", "location": "terminal", "gps_code": "OERK", "iata_code": "RUH", "wikipedia": "http:\/\/en.wikipedia.org\/wiki\/King_Khalid_International_Airport", "natlscale": 150.0, "comments": null, "wikidataid": "Q47157", "name_ar": "مطار الملك خالد الدولي", "name_bn": null, "name_de": "Flughafen Riad", "name_en": "King Khalid International Airport", "name_es": "Aeropuerto Internacional Rey Khalid", "name_fr": "aéroport international du roi Khaled", "name_el": null, "name_hi": "किंग खालिद हवाई अड्डा", "name_hu": null, "name_id": "Bandar Udara Internasional Raja Khalid", "name_it": "Aeroporto Internazionale di Riyad-King Khalid", "name_ja": "キング・ハーリド国際空港", "name_ko": "킹 칼리드 국제공항", "name_nl": "Luchthaven Riyad", "name_pl": "Port lotniczy Rijad", "name_pt": "Aeroporto Internacional King Khalid", "name_ru": "Король Халид", "name_sv": null, "name_tr": "Kral Halid Uluslararası Havalimanı", "name_vi": "Sân bay quốc tế quốc vương Khalid", "name_zh": "哈立德国王国际机场", "wdid_score": 4, "ne_id": 1159127633 }, "geometry": { "type": "Point", "coordinates": [ 46.701829023464015, 24.959031743651174 ] } },
{ "type": "Feature", "properties": { "scalerank": 2, "featurecla": "Airport", "type": "major", "name": "Arturo Merino Benitez Int'l", "abbrev": "SCL", "location": "terminal", "gps_code": "SCEL", "iata_code": "SCL", "wikipedia": "http:\/\/en.wikipedia.org\/wiki\/Comodoro_Arturo_Merino_Ben%C3%ADtez_International_Airport", "natlscale": 150.0, "comments": null, "wikidataid": "Q127671", "name_ar": null, "name_bn": null, "name_de": "Flughafen Santiago de Chile", "name_en": "Comodoro Arturo Merino Benítez International Airport", "name_es": "Aeropuerto Internacional Comodoro Arturo Merino Benítez", "name_fr": "aéroport international Arturo Merino Benítez", "name_el": null, "name_hi": null, "name_hu": null, "name_id": "Bandar Udara Internasional Comodoro Arturo Merino Benítez", "name_it": "Aeroporto Internazionale Comodoro Arturo Merino Benítez", "name_ja": "アルトゥーロ・メリノ・ベニテス国際空港", "name_ko": "코모도로 아르투로 메리노 베니테스 국제공항", "name_nl": "Arturo Merino Benitez Airport", "name_pl": "Port lotniczy Santiago de Chile", "name_pt": "Aeroporto Internacional Comodoro Arturo Merino Benítez", "name_ru": "Сантьяго", "name_sv": "Aeropuerto de Pudahuel", "name_tr": "Comodoro Arturo Merino Benítez Uluslararası Havalimanı", "name_vi": "Sân bay quốc tế Comodoro Arturo Merino Benítez", "name_zh": "阿图罗·梅里诺·贝尼特斯准将国际机场", "wdid_score": 4, "ne_id": 1159127643 }, "geometry": { "type": "Point", "coordinates": [ -70.793686016297414, -33.396833634259714 ] } },
{ "type": "Feature", "properties": { "scalerank": 2, "featurecla": "Airport", "type": "major", "name": "Tacoma Int'l", "abbrev": "SEA", "location": "terminal", "gps_code": "KSEA", "iata_code": "SEA", "wikipedia": "http:\/\/en.wikipedia.org\/wiki\/Seattle-Tacoma_International_Airport", "natlscale": 150.0, "comments": "???", "wikidataid": "Q14295", "name_ar": "مطار سيتال-تاكوما الدولى", "name_bn": null, "name_de": "Flughafen Seattle-Tacoma", "name_en": "Seattle–Tacoma International Airport", "name_es": "Aeropuerto Internacional de Seattle-Tacoma", "name_fr": "aéroport international de Seattle-Tacoma", "name_el": null, "name_hi": null, "name_hu": null, "name_id": "Bandar Udara Internasional Seattle-Tacoma", "name_it": "aeroporto internazionale di Seattle-Tacoma", "name_ja": "シアトル・タコマ国際空港", "name_ko": "시애틀 터코마 국제공항", "name_nl": "Seattle-Tacoma International Airport", "name_pl": "Port lotniczy Seattle-Tacoma", "name_pt": "Aeroporto Internacional de Seattle-Tacoma", "name_ru": "Сиэтл\/Такома", "name_sv": "Seattle–Tacoma International Airport", "name_tr": null, "name_vi": "Sân bay quốc tế Seattle-Tacoma", "name_zh": "西雅圖－塔科馬國際機場", "wdid_score": 2, "ne_id": 1159127655 }, "geometry": { "type": "Point", "coordinates": [ -122.302289722923874, 47.443581912725911 ] } },
{ "type": "Feature", "properties": { "scalerank": 2, "featurecla": "Airport", "type": "major", "name": "San Francisco Int'l", "abbrev": "SFO", "location": "terminal", "gps_code": "KSFO", "iata_code": "SFO", "wikipedia": "http:\/\/en.wikipedia.org\/wiki\/San_Francisco_International_Airport", "natlscale": 150.0, "comments": null, "wikidataid": "Q8688", "name_ar": "مطار سان فرانسيسكو الدولي", "name_bn": "সান ফ্রান্সিস্কো আন্তর্জাতিক বিমানবন্দর", "name_de": "San Francisco International Airport", "name_en": "San Francisco International Airport", "name_es": "Aeropuerto Internacional de San Francisco", "name_fr": "aéroport international de San Francisco", "name_el": null, "name_hi": null, "name_hu": "San Franciscó-i nemzetközi repülőtér", "name_id": "Bandar Udara Internasional San Francisco", "name_it": "Aeroporto Internazionale di San Francisco", "name_ja": "サンフランシスコ国際空港", "name_ko": "샌프란시스코 국제공항", "name_nl": "internationale luchthaven van San Francisco", "name_pl": "Port lotniczy San Francisco", "name_pt": "Aeroporto Internacional de São Francisco", "name_ru": "Международный аэропорт Сан-Франциско", "name_sv": "San Francisco International Airport", "name_tr": "San Francisco Uluslararası Havalimanı", "name_vi": "Sân bay quốc tế San Francisco", "name_zh": "舊金山國際機場", "wdid_score": 4, "ne_id": 1159127665 }, "geometry": { "type": "Point", "coordinates": [ -122.38347034444935, 37.617025086805349 ] } },
{ "type": "Feature", "properties": { "scalerank": 2, "featurecla": "Airport", "type": "major", "name": "Hongqiao", "abbrev": "SHA", "location": "terminal", "gps_code": "ZSSS", "iata_code": "SHA", "wikipedia": "http:\/\/en.wikipedia.org\/wiki\/Shanghai_Hongqiao_International_Airport", "natlscale": 150.0, "comments": null, "wikidataid": "Q421811", "name_ar": "مطار شانغهاي هونغكياو الدولي", "name_bn": null, "name_de": "Flughafen Shanghai-Hongqiao", "name_en": "Shanghai Hongqiao International Airport", "name_es": "Aeropuerto Internacional Hongqiao", "name_fr": "aéroport international de Shanghai Hongqiao", "name_el": null, "name_hi": null, "name_hu": "Sanghaj Hungcsiao nemzetközi repülőtér", "name_id": "Bandar Udara Internasional Hongqiao Shanghai", "name_it": "Aeroporto Internazionale di Shanghai-Hongqiao", "name_ja": "上海虹橋国際空港", "name_ko": "상하이 훙차오 국제공항", "name_nl": "Luchthaven Shanghai Hongqiao", "name_pl": "Port lotniczy Szanghaj-Hongqiao", "name_pt": "Aeroporto Internacional de Xangai Hongqiao", "name_ru": "Шанхай Хунцяо", "name_sv": "Shanghai Hongqiao International Airport", "name_tr": null, "name_vi": "Sân bay quốc tế Hồng Kiều Thượng Hải", "name_zh": "上海虹桥国际机场", "wdid_score": 4, "ne_id": 1159127677 }, "geometry": { "type": "Point", "coordinates": [ 121.341183788567136, 31.187257431407843 ] } },
{ "type": "Feature", "properties": { "scalerank": 2, "featurecla": "Airport", "type": "major", "name": "Sheremtyevo", "abbrev": "SVO", "location": "terminal", "gps_code": "UUEE", "iata_code": "SVO", "wikipedia": "http:\/\/en.wikipedia.org\/wiki\/Sheremetyevo_International_Airport", "natlscale": 150.0, "comments": null, "wikidataid": "Q192733", "name_ar": "مطار شيريميتييفو الدولي", "name_bn": null, "name_de": "Flughafen Moskau-Scheremetjewo", "name_en": "Sheremetyevo International Airport", "name_es": "Aeropuerto Internacional de Moscú-Sheremétievo", "name_fr": "aéroport international Chérémétiévo", "name_el": null, "name_hi": "शेरेमेत्येवो अन्तर्राष्ट्रीय विमानक्षेत्र", "name_hu": "Seremetyjevói nemzetközi repülőtér", "name_id": "Bandar Udara Internasional Sheremetyevo", "name_it": "Aeroporto di Mosca-Šeremet'evo", "name_ja": "シェレメーチエヴォ国際空港", "name_ko": "셰레메티예보 국제공항", "name_nl": "Luchthaven Sjeremetjevo", "name_pl": "Port lotniczy Moskwa-Szeremietiewo", "name_pt": "Aeroporto Internacional Sheremetyevo", "name_ru": "Шереметьево", "name_sv": "Sjeremetievo internationella flygplats", "name_tr": "Şeremetyevo Uluslararası Havalimanı", "name_vi": "Sân bay quốc tế Sheremetyevo", "name_zh": "谢列梅捷沃国际机场", "wdid_score": 4, "ne_id": 1159127689 }, "geometry": { "type": "Point", "coordinates": [ 37.415969034841353, 55.966447172511991 ] } },
{ "type": "Feature", "properties": { "scalerank": 2, "featurecla": "Airport", "type": "major", "name": "Toronto-Pearson Int'l", "abbrev": "YYZ", "location": "terminal", "gps_code": "CYYZ", "iata_code": "YYZ", "wikipedia": "http:\/\/en.wikipedia.org\/wiki\/Toronto_Pearson_International_Airport", "natlscale": 150.0, "comments": null, "wikidataid": "Q242066", "name_ar": "مطار تورونتو بيرسون الدولي", "name_bn": null, "name_de": "Flughafen Toronto", "name_en": "Toronto Pearson International Airport", "name_es": "Aeropuerto Internacional Toronto Pearson", "name_fr": "aéroport international Pearson de Toronto", "name_el": "Διεθνές Αεροδρόμιο του Τορόντο", "name_hi": "टोरोंटो पियरसन अन्तर्राष्ट्रीय विमानक्षेत्र", "name_hu": null, "name_id": "Bandar Udara Internasional Pearson Toronto", "name_it": "Aeroporto Internazionale di Toronto-Pearson", "name_ja": "トロント・ピアソン国際空港", "name_ko": "토론토 피어슨 국제공항", "name_nl": "Toronto Pearson International Airport", "name_pl": "Port lotniczy Toronto-Lester B. Pearson", "name_pt": "Aeroporto Internacional Toronto Pearson", "name_ru": "Торонто", "name_sv": "Toronto Pearson International Airport", "name_tr": "Toronto Pearson Uluslararası Havalimanı", "name_vi": "Sân bay quốc tế Toronto Pearson", "name_zh": "多倫多皮爾遜國際機場", "wdid_score": 4, "ne_id": 1159127701 }, "geometry": { "type": "Point", "coordinates": [ -79.611419324744858, 43.680959518635639 ] } },
{ "type": "Feature", "properties": { "scalerank": 2, "featurecla": "Airport", "type": "major", "name": "Kingsford Smith", "abbrev": "SYD", "location": "terminal", "gps_code": "YSSY", "iata_code": "SYD", "wikipedia": "http:\/\/en.wikipedia.org\/wiki\/Kingsford_Smith_International_Airport", "natlscale": 150.0, "comments": null, "wikidataid": "Q17581", "name_ar": "مطار سيدني", "name_bn": null, "name_de": "Flughafen Sydney", "name_en": "Sydney Airport", "name_es": "Aeropuerto Internacional Kingsford Smith", "name_fr": "aéroport de Sydney", "name_el": null, "name_hi": "किंग्स्फोर्ड हवाई अड्डा", "name_hu": "Sydney repülőtér", "name_id": "Bandar Udara Sydney", "name_it": "Aeroporto Internazionale Kingsford Smith", "name_ja": "シドニー国際空港", "name_ko": "시드니 공항", "name_nl": "Kingsford Smith International Airport", "name_pl": "Port lotniczy Sydney", "name_pt": "Aeroporto de Sydney", "name_ru": "Сидней", "name_sv": "Kingsford Smith International Airport", "name_tr": "Sydney Havalimanı", "name_vi": "Sân bay quốc tế Kingsfort Smith", "name_zh": "悉尼机场", "wdid_score": 4, "ne_id": 1159127713 }, "geometry": { "type": "Point", "coordinates": [ 151.166067305601018, -33.936583205771655 ] } },
{ "type": "Feature", "properties": { "scalerank": 2, "featurecla": "Airport", "type": "major", "name": "Helsinki Vantaa", "abbrev": "HEL", "location": "terminal", "gps_code": "EFHK", "iata_code": "HEL", "wikipedia": "http:\/\/en.wikipedia.org\/wiki\/Helsinki-Vantaa_Airport", "natlscale": 150.0, "comments": null, "wikidataid": "Q215327", "name_ar": "مطار هلسنكي فانتا", "name_bn": null, "name_de": "Flughafen Helsinki-Vantaa", "name_en": "Helsinki Airport", "name_es": "Aeropuerto de Helsinki-Vantaa", "name_fr": "aéroport d'Helsinki-Vantaa", "name_el": "Διεθνές Αεροδρόμιο του Ελσίνκι", "name_hi": "हेल्सिंकी अन्तर्राष्ट्रीय विमानक्षेत्र", "name_hu": "Helsinki nemzetközi repülőtér", "name_id": "Bandar Udara Helsinki-Vantaa", "name_it": "Aeroporto di Helsinki-Vantaa", "name_ja": "ヘルシンキ・ヴァンター国際空港", "name_ko": "헬싱키 공항", "name_nl": "Luchthaven Helsinki-Vantaa", "name_pl": "Port lotniczy Helsinki-Vantaa", "name_pt": "Aeroporto de Helsínquia-Vantaa", "name_ru": "Хельсинки-Вантаа", "name_sv": "Helsingfors-Vanda flygplats", "name_tr": "Helsinki-Vantaa Havalimanı", "name_vi": "Sân bay Helsinki-Vantaa", "name_zh": "赫尔辛基-万塔机场", "wdid_score": 4, "ne_id": 1159127725 }, "geometry": { "type": "Point", "coordinates": [ 24.968207866591406, 60.318715891298211 ] } },
{ "type": "Feature", "properties": { "scalerank": 2, "featurecla": "Airport", "type": "major", "name": "Charles de Gaulle Int'l", "abbrev": "CDG", "location": "terminal", "gps_code": "LFPG", "iata_code": "CDG", "wikipedia": "http:\/\/en.wikipedia.org\/wiki\/Charles_de_Gaulle_International_Airport", "natlscale": 150.0, "comments": null, "wikidataid": "Q46280", "name_ar": "مطار باريس شارل ديغول", "name_bn": null, "name_de": "Flughafen Paris-Charles-de-Gaulle", "name_en": "Paris-Charles de Gaulle Airport", "name_es": "Aeropuerto de París-Charles de Gaulle", "name_fr": "aéroport Paris-Charles-de-Gaulle", "name_el": "Διεθνές Αεροδρόμιο Παρισιού Σαρλ ντε Γκωλ", "name_hi": "चार्ल्स डि गॉल विमानक्षेत्र", "name_hu": "Párizs-Charles de Gaulle repülőtér", "name_id": "Bandar Udara Paris-Charles de Gaulle", "name_it": "Aeroporto di Parigi Charles de Gaulle", "name_ja": "シャルル・ド・ゴール国際空港", "name_ko": "파리 샤를 드 골 공항", "name_nl": "Luchthaven Parijs-Charles de Gaulle", "name_pl": "Port lotniczy Paryż-Roissy-Charles de Gaulle", "name_pt": "Aeroporto de Paris-Charles de Gaulle", "name_ru": "Париж — Шарль-де-Голль", "name_sv": "Paris-Charles de Gaulle-flygplatsen", "name_tr": "Paris-Charles de Gaulle Havalimanı", "name_vi": "Sân bay quốc tế Charles-de-Gaulle", "name_zh": "巴黎夏尔·戴高乐机场", "wdid_score": 4, "ne_id": 1159127735 }, "geometry": { "type": "Point", "coordinates": [ 2.541867767394573, 49.014420096938551 ] } },
{ "type": "Feature", "properties": { "scalerank": 2, "featurecla": "Airport", "type": "major", "name": "Berlin-Tegel Int'l", "abbrev": "TXL", "location": "terminal", "gps_code": "EDDT", "iata_code": "TXL", "wikipedia": "http:\/\/en.wikipedia.org\/wiki\/Berlin-Tegel_International_Airport", "natlscale": 150.0, "comments": null, "wikidataid": "Q9688", "name_ar": "مطار برلين تيجيل الدولي", "name_bn": "টেগেল বিমানবন্দর", "name_de": "Flughafen Berlin-Tegel", "name_en": "Berlin Tegel Airport", "name_es": "Aeropuerto de Berlín-Tegel", "name_fr": "aéroport de Berlin-Tegel", "name_el": null, "name_hi": "टेगेल हवाई अड्डा", "name_hu": "Berlin-Tegel repülőtér", "name_id": "Bandar Udara Internasional Berlin Tegel", "name_it": "aeroporto di Berlino-Tegel", "name_ja": "ベルリン・テーゲル国際空港", "name_ko": "베를린 테겔 국제공항", "name_nl": "Luchthaven Berlin-Tegel", "name_pl": "Port lotniczy Berlin-Tegel", "name_pt": "Aeroporto de Berlin-Tegel", "name_ru": "Берлин-Тегель", "name_sv": "Berlin-Tegels flygplats", "name_tr": "Tegel Havalimanı", "name_vi": "Sân bay Berlin Tegel", "name_zh": "柏林-泰格尔奥托·利林塔尔机场", "wdid_score": 4, "ne_id": 1159127747 }, "geometry": { "type": "Point", "coordinates": [ 13.2903090925074, 52.554428704410093 ] } },
{ "type": "Feature", "properties": { "scalerank": 2, "featurecla": "Airport", "type": "major", "name": "Vienna Schwechat Int'l", "abbrev": "VIE", "location": "terminal", "gps_code": "LOWW", "iata_code": "VIE", "wikipedia": "http:\/\/en.wikipedia.org\/wiki\/Vienna_International_Airport", "natlscale": 150.0, "comments": null, "wikidataid": "Q32999", "name_ar": "مطار فيينا الدولي", "name_bn": null, "name_de": "Flughafen Wien-Schwechat", "name_en": "Wien-Schwechat Airport", "name_es": "Aeropuerto de Viena-Schwechat", "name_fr": "aéroport de Vienne-Schwechat", "name_el": "Διεθνές Αεροδρόμιο της Βιέννης", "name_hi": "वियना अन्तर्राष्ट्रीय विमानक्षेत्र", "name_hu": "Bécs–Schwechati nemzetközi repülőtér", "name_id": "Bandar Udara Internasional Wina", "name_it": "aeroporto di Vienna - Schwechat", "name_ja": "ウィーン国際空港", "name_ko": "빈 국제공항", "name_nl": "Luchthaven Wenen", "name_pl": "Port lotniczy Wiedeń-Schwechat", "name_pt": "Aeroporto Internacional de Viena", "name_ru": "Вена-Швехат", "name_sv": "Wien-Schwechats flygplats", "name_tr": "Viyana Uluslararası Havalimanı", "name_vi": "Sân bay quốc tế Viên", "name_zh": "維也納國際機場", "wdid_score": 4, "ne_id": 1159127759 }, "geometry": { "type": "Point", "coordinates": [ 16.560767964212864, 48.119756305253766 ] } },
{ "type": "Feature", "properties": { "scalerank": 2, "featurecla": "Airport", "type": "major", "name": "Frankfurt Int'l", "abbrev": "FRA", "location": "terminal", "gps_code": "EDDF", "iata_code": "FRA", "wikipedia": "http:\/\/en.wikipedia.org\/wiki\/Frankfurt_Airport", "natlscale": 150.0, "comments": null, "wikidataid": "Q46033", "name_ar": "مطار فرانكفورت", "name_bn": "ফ্রাঙ্কফুর্ট বিমানবন্দর", "name_de": "Flughafen Frankfurt am Main", "name_en": "Frankfurt Airport", "name_es": "aeropuerto de Frankfurt", "name_fr": "aéroport international de Francfort \/ Rhein-Main", "name_el": "Διεθνές Αεροδρόμιο Φρανκφούρτης", "name_hi": "फ़्रैंकफ़र्ट विमानक्षेत्र", "name_hu": "Frankfurti repülőtér", "name_id": "Bandar Udara Internasional Frankfurt", "name_it": "aeroporto di Francoforte sul Meno", "name_ja": "フランクフルト空港", "name_ko": "프랑크푸르트 공항", "name_nl": "Luchthaven Frankfurt am Main", "name_pl": "Port lotniczy Frankfurt", "name_pt": "Aeroporto de Frankfurt", "name_ru": "Франкфурт-на-Майне", "name_sv": "Frankfurt am Mains flygplats", "name_tr": "Frankfurt Havalimanı", "name_vi": "Sân bay quốc tế Frankfurt", "name_zh": "法兰克福机场", "wdid_score": 2, "ne_id": 1159127769 }, "geometry": { "type": "Point", "coordinates": [ 8.571822869076076, 50.05067708952074 ] } },
{ "type": "Feature", "properties": { "scalerank": 2, "featurecla": "Airport", "type": "major", "name": "Leonardo da Vinci Int'l", "abbrev": "FCO", "location": "terminal", "gps_code": "LIRF", "iata_code": "FCO", "wikipedia": "http:\/\/en.wikipedia.org\/wiki\/Leonardo_da_Vinci_Airport", "natlscale": 150.0, "comments": null, "wikidataid": "Q19101", "name_ar": "مطار ليوناردو دا فينشي", "name_bn": null, "name_de": "Flughafen Rom-Fiumicino", "name_en": "Leonardo da Vinci–Fiumicino Airport", "name_es": "Aeropuerto de Roma-Fiumicino", "name_fr": "aéroport Léonard-da-Vinci de Rome Fiumicino", "name_el": "Διεθνές Αεροδρόμιο Λεονάρντο Ντα Βίντσι - Φιουμιτσίνο", "name_hi": "लियोनार्दो दा विन्ची फ़्यूमिशिनो विमानक्षेत्र", "name_hu": "Róma-Fiumicino nemzetközi repülőtér", "name_id": "Bandar Udara Internasional Leonardo da Vinci", "name_it": "Aeroporto di Roma-Fiumicino", "name_ja": "フィウミチーノ空港", "name_ko": "레오나르도 다 빈치 국제공항", "name_nl": "Luchthaven Rome Fiumicino", "name_pl": "Port lotniczy Rzym-Fiumicino", "name_pt": "Aeroporto Internacional de Roma", "name_ru": "Международный аэропорт имени Леонардо да Винчи", "name_sv": "Rom-Fiumicino flygplats", "name_tr": "Fiumicino – Leonardo da Vinci Havalimanı", "name_vi": "Sân bay quốc tế Leonardo da Vinci", "name_zh": "羅馬－菲烏米奇諾機場", "wdid_score": 4, "ne_id": 1159127781 }, "geometry": { "type": "Point", "coordinates": [ 12.250100897363827, 41.795078630739425 ] } },
{ "type": "Feature", "properties": { "scalerank": 2, "featurecla": "Airport", "type": "major", "name": "Osaka Int'l", "abbrev": "ITM", "location": "terminal", "gps_code": "RJOO", "iata_code": "ITM", "wikipedia": "http:\/\/en.wikipedia.org\/wiki\/Osaka_International_Airport", "natlscale": 150.0, "comments": null, "wikidataid": "Q1046748", "name_ar": "مطار أوساكا الدولي", "name_bn": null, "name_de": "Flughafen Osaka-Itami", "name_en": "Osaka International Airport", "name_es": "Aeropuerto Internacional de Osaka", "name_fr": "aéroport international d'Osaka", "name_el": null, "name_hi": null, "name_hu": null, "name_id": "Bandar Udara Internasional Osaka", "name_it": "Aeroporto Internazionale di Osaka", "name_ja": "大阪国際空港", "name_ko": "오사카 국제공항", "name_nl": "Osaka International Airport", "name_pl": "Port lotniczy Ōsaka", "name_pt": "Aeroporto Internacional de Osaka", "name_ru": "Международный аэропорт Осака", "name_sv": null, "name_tr": "Osaka Uluslararası Havalimanı", "name_vi": "Sân bay quốc tế Osaka", "name_zh": "大阪國際機場", "wdid_score": 4, "ne_id": 1159127787 }, "geometry": { "type": "Point", "coordinates": [ 135.442475256249395, 34.790198084874866 ] } },
{ "type": "Feature", "properties": { "scalerank": 2, "featurecla": "Airport", "type": "major", "name": "Gimpo Int'l", "abbrev": "GMP", "location": "terminal", "gps_code": "RKSS", "iata_code": "GMP", "wikipedia": "http:\/\/en.wikipedia.org\/wiki\/Gimpo_International_Airport", "natlscale": 150.0, "comments": null, "wikidataid": "Q482493", "name_ar": "مطار غيمبو الدولي", "name_bn": null, "name_de": "Flughafen Gimpo", "name_en": "Gimpo International Airport", "name_es": "Aeropuerto Internacional de Gimpo", "name_fr": "aéroport international de Gimpo", "name_el": null, "name_hi": "किम्पो हवाई अड्डा", "name_hu": null, "name_id": "Bandar Udara Internasional Gimpo", "name_it": "Aeroporto Internazionale Gimpo", "name_ja": "金浦国際空港", "name_ko": "김포국제공항", "name_nl": "Gimpo International Airport", "name_pl": "Port lotniczy Seul-Gimpo", "name_pt": "Aeroporto Internacional de Gimpo", "name_ru": "Международный аэропорит Джимпо", "name_sv": "Gimpo Airport", "name_tr": "Gimpo Uluslararası Havalimanı", "name_vi": "Sân bay quốc tế Gimpo", "name_zh": "金浦国际机场", "wdid_score": 4, "ne_id": 1159127799 }, "geometry": { "type": "Point", "coordinates": [ 126.802392860275845, 37.557300539950781 ] } },
{ "type": "Feature", "properties": { "scalerank": 2, "featurecla": "Airport", "type": "major", "name": "Oslo Gardermoen", "abbrev": "OSL", "location": "terminal", "gps_code": "ENGM", "iata_code": "OSL", "wikipedia": "http:\/\/en.wikipedia.org\/wiki\/Gardermoen_Air_Station", "natlscale": 150.0, "comments": null, "wikidataid": "Q210559", "name_ar": "مطار أوسلو-غاردرموين", "name_bn": null, "name_de": "Flughafen Oslo-Gardermoen", "name_en": "Oslo Airport", "name_es": "Aeropuerto de Oslo-Gardermoen", "name_fr": "aéroport international d'Oslo-Gardermoen", "name_el": null, "name_hi": null, "name_hu": "Oslo–Gardermoeni repülőtér", "name_id": "Bandar Udara Gardermoen Oslo", "name_it": "Aeroporto di Oslo-Gardermoen", "name_ja": "オスロ空港", "name_ko": "오슬로 가르데르모엔 공항", "name_nl": "Luchthaven Oslo Gardermoen", "name_pl": "Port lotniczy Oslo-Gardermoen", "name_pt": "Aeroporto de Oslo Gardermoen", "name_ru": "Гардермуэн", "name_sv": "Oslo flygplats", "name_tr": "Oslo-Gardermoen Havalimanı", "name_vi": "Sân bay Oslo", "name_zh": "奥斯陆加勒穆恩机场", "wdid_score": 2, "ne_id": 1159127809 }, "geometry": { "type": "Point", "coordinates": [ 11.099103276258118, 60.193578317138616 ] } },
{ "type": "Feature", "properties": { "scalerank": 2, "featurecla": "Airport", "type": "major", "name": "Juscelino Kubitschek Int'l", "abbrev": "BSB", "location": "terminal", "gps_code": "SBBR", "iata_code": "BSB", "wikipedia": "http:\/\/en.wikipedia.org\/wiki\/Bras%C3%ADlia_International_Airport", "natlscale": 150.0, "comments": "???", "wikidataid": "Q909488", "name_ar": null, "name_bn": null, "name_de": "Flughafen Presidente Juscelino Kubitschek", "name_en": "Brasília International Airport", "name_es": "Aeropuerto Internacional Presidente Juscelino Kubitschek", "name_fr": "aéroport international Presidente Juscelino Kubitschek", "name_el": null, "name_hi": null, "name_hu": null, "name_id": "Bandar Udara Internasional Presiden Juscelino Kubitschek", "name_it": "Aeroporto internazionale di Brasilia", "name_ja": "プレジデント・ジュセリノ・クビシェッキ国際空港", "name_ko": "브라질리아 국제공항", "name_nl": "Luchthaven Presidente Juscelino Kubitschek", "name_pl": "Port lotniczy Brasília", "name_pt": "Aeroporto Internacional de Brasília", "name_ru": "Международный аэропорт Бразилиа имени Жуселину Кубичека", "name_sv": "Brasília Internationella flygplats", "name_tr": null, "name_vi": "Sân bay quốc tế Brasília", "name_zh": "巴西利亚－儒塞利诺·库比契克总统国际机场", "wdid_score": 2, "ne_id": 1159127817 }, "geometry": { "type": "Point", "coordinates": [ -47.920788513362538, -15.869998500282428 ] } },
{ "type": "Feature", "properties": { "scalerank": 2, "featurecla": "Airport", "type": "major", "name": "Congonhas Int'l", "abbrev": "CGH", "location": "terminal", "gps_code": "SBSP", "iata_code": "CGH", "wikipedia": "http:\/\/en.wikipedia.org\/wiki\/Congonhas-S%C3%A3o_Paulo_International_Airport", "natlscale": 150.0, "comments": null, "wikidataid": "Q862401", "name_ar": "مطار كونجونهاس الدولي", "name_bn": null, "name_de": "Flughafen Congonhas", "name_en": "Congonhas-São Paulo Airport", "name_es": "Aeropuerto de Congonhas", "name_fr": "aéroport international de Congonhas", "name_el": null, "name_hi": null, "name_hu": null, "name_id": "Bandar Udara Internasional Congonhas", "name_it": "Aeroporto di San Paolo-Congonhas", "name_ja": "コンゴニャス国際空港", "name_ko": "콩고냐스 상파울루 공항", "name_nl": "Luchthaven Congonhas", "name_pl": "Port lotniczy São Paulo-Congonhas", "name_pt": "Aeroporto de Congonhas\/São Paulo", "name_ru": "Конгоньяс", "name_sv": "São Paulo-Congonhas flygplats", "name_tr": null, "name_vi": "Sân bay quốc tế Congonhas-São Paulo", "name_zh": "孔戈尼亚斯\/圣保罗机场", "wdid_score": 4, "ne_id": 1159127827 }, "geometry": { "type": "Point", "coordinates": [ -46.659115530219566, -23.626858827009997 ] } },
{ "type": "Feature", "properties": { "scalerank": 2, "featurecla": "Airport", "type": "major", "name": "Rio de Janeiro-Antonio Carlos Jobim Int'l", "abbrev": "GIG", "location": "terminal", "gps_code": "SBGL", "iata_code": "GIG", "wikipedia": "http:\/\/en.wikipedia.org\/wiki\/Rio_de_Janeiro-Gale%C3%A3o_International_Airport", "natlscale": 150.0, "comments": "???", "wikidataid": "Q733998", "name_ar": "مطار ريو دي جانيرو الدولي", "name_bn": null, "name_de": "Flughafen Aeroporto Internacional Do Rio De Janeiro\/galeão – Antonio Carlos Jobim", "name_en": "Rio de Janeiro-Galeão International Airport", "name_es": "Aeropuerto Internacional de Galeão", "name_fr": "aéroport international de Rio de Janeiro-Galeão", "name_el": null, "name_hi": null, "name_hu": "Rio de Janeiro-Galeão Nemzetközi Repülőtér", "name_id": "Bandar Udara Internasional Antonio Carlos Jobim", "name_it": "Aeroporto Internazionale di Rio de Janeiro", "name_ja": "アントニオ・カルロス・ジョビン国際空港", "name_ko": "리우데자네이루 갈레앙 국제공항", "name_nl": "Internationale Luchthaven Antônio Carlos Jobim", "name_pl": "Port lotniczy Rio de Janeiro-Galeão", "name_pt": "Aeroporto Internacional do Rio de Janeiro Tom Jobim\/Galeão", "name_ru": "Галеан", "name_sv": "Galeão International Airport", "name_tr": null, "name_vi": "Sân bay quốc tế Rio de Janeiro-Galeão", "name_zh": "里约热内卢\/加利昂－安东尼奥·卡洛斯·若比姆国际机场", "wdid_score": 2, "ne_id": 1159127839 }, "geometry": { "type": "Point", "coordinates": [ -43.248381379068306, -22.812343712500642 ] } },
{ "type": "Feature", "properties": { "scalerank": 2, "featurecla": "Airport", "type": "major", "name": "Madrid Barajas", "abbrev": "MAD", "location": "terminal", "gps_code": "LEMD", "iata_code": "MAD", "wikipedia": "http:\/\/en.wikipedia.org\/wiki\/Madrid_Barajas_International_Airport", "natlscale": 150.0, "comments": null, "wikidataid": "Q166276", "name_ar": "مطار مدريد باراخاس الدولي", "name_bn": null, "name_de": "Flughafen Adolfo Suárez Madrid-Barajas", "name_en": "Adolfo Suárez Madrid–Barajas Airport", "name_es": "Aeropuerto de Adolfo Suárez Madrid-Barajas", "name_fr": "aéroport international de Adolfo Suárez Madrid-Barajas", "name_el": "Διεθνές Αεροδρόμιο Μαδρίτης Μπαράχας", "name_hi": "बाराजास हवाई अड्डा", "name_hu": "Adolfo Suárez Madrid-Barajasi repülőtér", "name_id": "Bandar Udara Internasional Barajas Madrid", "name_it": "Aeroporto di Adolfo Suárez Madrid-Barajas", "name_ja": "マドリード・バラハス国際空港", "name_ko": "마드리드 바라하스 국제공항", "name_nl": "Luchthaven  Adolfo Suárez Madrid-Barajas", "name_pl": "Port lotniczy Madryt-Barajas", "name_pt": "Aeroporto de Adolfo Suárez Madrid-Barajas", "name_ru": "Барахас", "name_sv": "Madrid-Barajas flygplats", "name_tr": "Madrid Barajas Uluslararası Havalimanı", "name_vi": "Sân bay quốc tế Madrid Barajas", "name_zh": "马德里－巴拉哈斯机场", "wdid_score": 4, "ne_id": 1159127851 }, "geometry": { "type": "Point", "coordinates": [ -3.569026654588628, 40.468128273392253 ] } },
{ "type": "Feature", "properties": { "scalerank": 2, "featurecla": "Airport", "type": "major", "name": "Luis Muñoz Marin", "abbrev": "SJU", "location": "terminal", "gps_code": "TJSJ", "iata_code": "SJU", "wikipedia": "http:\/\/en.wikipedia.org\/wiki\/Luis_Mu%C3%B1oz_Mar%C3%ADn_International_Airport", "natlscale": 150.0, "comments": null, "wikidataid": "Q1360523", "name_ar": "مطار لويس مارين مونيوز", "name_bn": null, "name_de": "Flughafen San Juan", "name_en": "Luis Muñoz Marín International Airport", "name_es": "Aeropuerto Internacional Luis Muñoz Marín", "name_fr": "aéroport international Luis-Muñoz-Marín", "name_el": null, "name_hi": null, "name_hu": null, "name_id": "Bandar Udara Internasional Luis Muñoz Marín", "name_it": "Aeroporto di San Juan-Isla Verde", "name_ja": "ルイス・ムニョス・マリン国際空港", "name_ko": null, "name_nl": "Luis Muñoz Marín International Airport", "name_pl": "Port lotniczy Luis Muñoz Marín", "name_pt": "Aeroporto Internacional Luis Muñoz Marin", "name_ru": "Каролина", "name_sv": "Luis Muñoz Marín International Airport", "name_tr": null, "name_vi": "Sân bay quốc tế Luis Muñoz Marín", "name_zh": "路易斯·穆尼奥斯·马林国际机场", "wdid_score": 4, "ne_id": 1159127861 }, "geometry": { "type": "Point", "coordinates": [ -66.004229975754754, 18.438077073494931 ] } },
{ "type": "Feature", "properties": { "scalerank": 2, "featurecla": "Airport", "type": "major", "name": "Arlanda", "abbrev": "ARN", "location": "terminal", "gps_code": "ESSA", "iata_code": "ARN", "wikipedia": "http:\/\/en.wikipedia.org\/wiki\/Stockholm-Arlanda_Airport", "natlscale": 150.0, "comments": null, "wikidataid": "Q223499", "name_ar": "مطار ستوكهولم أرلاندا", "name_bn": "স্টকহোল্ম আর্লান্দা বিমানবন্দর", "name_de": "Flughafen Stockholm-Arlanda", "name_en": "Stockholm Arlanda Airport", "name_es": "Aeropuerto de Estocolmo-Arlanda", "name_fr": "aéroport de Stockholm-Arlanda", "name_el": "Διεθνές Αεροδρόμιο Αρλάντα", "name_hi": null, "name_hu": "Stockholm-Arlanda repülőtér", "name_id": "Bandar Udara Stockholm Arlanda", "name_it": "Aeroporto di Stoccolma-Arlanda", "name_ja": "ストックホルム・アーランダ空港", "name_ko": "스톡홀름 알란다 공항", "name_nl": "Luchthaven Stockholm-Arlanda", "name_pl": "Port lotniczy Sztokholm-Arlanda", "name_pt": "Aeroporto de Arlanda", "name_ru": "Стокгольм-Арланда", "name_sv": "Stockholm Arlanda Airport", "name_tr": "Stockholm-Arlanda Havalimanı", "name_vi": "Sân bay Stockholm-Arlanda", "name_zh": "斯德哥爾摩－阿蘭達機場", "wdid_score": 4, "ne_id": 1159127877 }, "geometry": { "type": "Point", "coordinates": [ 17.930729901691585, 59.651120339737211 ] } },
{ "type": "Feature", "properties": { "scalerank": 2, "featurecla": "Airport", "type": "major", "name": "Soekarno-Hatta Int'l", "abbrev": "CGK", "location": "parking", "gps_code": "WIII", "iata_code": "CGK", "wikipedia": "http:\/\/en.wikipedia.org\/wiki\/Soekarno-Hatta_International_Airport", "natlscale": 150.0, "comments": null, "wikidataid": "Q749497", "name_ar": "مطار سوكارنو هاتا الدولي", "name_bn": null, "name_de": "Flughafen Soekarno-Hatta", "name_en": "Soekarno–Hatta International Airport", "name_es": "Aeropuerto Internacional Soekarno-Hatta", "name_fr": "aéroport international de Jakarta", "name_el": null, "name_hi": "सुकानो हात्ता हवाई अड्डा", "name_hu": "Soekarno-Hatta nemzetközi repülőtér", "name_id": "Bandar Udara Internasional Soekarno-Hatta", "name_it": "Aeroporto Internazionale Soekarno-Hatta", "name_ja": "スカルノ・ハッタ国際空港", "name_ko": "수카르노 하타 국제공항", "name_nl": "Internationale luchthaven Soekarno-Hatta", "name_pl": "Port lotniczy Dżakarta-Soekarno-Hatta", "name_pt": "Aeroporto Internacional Soekarno-Hatta", "name_ru": "Сукарно-Хатта", "name_sv": "Soekarno-Hatta International Airport", "name_tr": "Soekarno-Hatta Uluslararası Havalimanı", "name_vi": "Sân bay quốc tế Soekarno-Hatta", "name_zh": "蘇加諾－哈達國際機場", "wdid_score": 4, "ne_id": 1159127891 }, "geometry": { "type": "Point", "coordinates": [ 106.654296151171636, -6.126602955972902 ] } },
{ "type": "Feature", "properties": { "scalerank": 2, "featurecla": "Airport", "type": "major", "name": "Eleftherios Venizelos Int'l", "abbrev": "ATH", "location": "terminal", "gps_code": "LGAV", "iata_code": "ATH", "wikipedia": "http:\/\/en.wikipedia.org\/wiki\/Athens_International_Airport", "natlscale": 150.0, "comments": "???", "wikidataid": "Q211734", "name_ar": "مطار أثينا الدولي", "name_bn": "এথেন্স আন্তর্জাতিক বিমানবন্দর", "name_de": "Flughafen Athen-Eleftherios Venizelos", "name_en": "Athens International Airport", "name_es": "Aeropuerto Internacional Eleftherios Venizelos", "name_fr": "aéroport international d'Athènes Elefthérios-Venizélos", "name_el": "Διεθνής Αερολιμένας Αθηνών «Ελευθέριος Βενιζέλος»", "name_hi": null, "name_hu": "Elefthériosz Venizélosz nemzetközi repülőtér", "name_id": "Bandar Udara Internasional Eleftherios Venizelos", "name_it": "Aeroporto Internazionale di Atene", "name_ja": "アテネ国際空港", "name_ko": "아테네 국제공항", "name_nl": "Luchthaven Athene", "name_pl": "Port lotniczy Ateny", "name_pt": "Aeroporto Internacional de Atenas", "name_ru": "Элефтериос Венизелос", "name_sv": "Aten-Elefthérios Venizélos flygplats", "name_tr": "Atina Elefterios Venizelos Uluslararası Havalimanı", "name_vi": "Sân bay quốc tế Athena", "name_zh": "雅典埃莱夫塞里奥斯·韦尼泽洛斯国际机场", "wdid_score": 2, "ne_id": 1159127903 }, "geometry": { "type": "Point", "coordinates": [ 23.94711605540731, 37.93623312992537 ] } }
]
}
