{
"type": "FeatureCollection",
"name": "portsair",
"crs": { "type": "name", "properties": { "name": "urn:ogc:def:crs:OGC:1.3:CRS84" } },
"features": [
{ "type": "Feature", "properties": { "scalerank": 3, "featurecla": "Airport", "type": "major", "name": "Douglas Int'l", "abbrev": "CLT", "location": "terminal", "gps_code": "KCLT", "iata_code": "CLT", "wikipedia": "http:\/\/en.wikipedia.org\/wiki\/Charlotte\/Douglas_International_Airport", "natlscale": 75.0, "comments": null, "wikidataid": "Q597649", "name_ar": "مطار تشارلوت دوغلاس الدولي", "name_bn": null, "name_de": "Charlotte Douglas International Airport", "name_en": "Charlotte\/Douglas International Airport", "name_es": "Aeropuerto Internacional Douglas", "name_fr": "aéroport international Charlotte-Douglas", "name_el": null, "name_hi": null, "name_hu": null, "name_id": "Bandar Udara Internasional Charlotte\/Douglas", "name_it": "Aeroporto Internazionale di Charlotte-Douglas", "name_ja": "シャーロット・ダグラス国際空港", "name_ko": "샬롯 더글러스 국제공항", "name_nl": "Internationale luchthaven Charlotte-Douglas", "name_pl": "Port lotniczy Charlotte", "name_pt": "Aeroporto Internacional de Charlotte\/Douglas", "name_ru": "Шарлотт Дуглас", "name_sv": "Charlotte\/Douglas International Airport", "name_tr": "Charlotte Douglas Uluslararası Havalimanı", "name_vi": "Sân bay quốc tế Charlotte\/Douglas", "name_zh": "夏洛特道格拉斯國際機場", "wdid_score": 4, "ne_id": 1159126907 }, "geometry": { "type": "Point", "coordinates": [ -80.943927734276258, 35.220428168559714 ] } },
{ "type": "Feature", "properties": { "scalerank": 3, "featurecla": "Airport", "type": "major", "name": "Detroit Metro", "abbrev": "DTW", "location": "terminal", "gps_code": "KDTW", "iata_code": "DTW", "wikipedia": "http:\/\/en.wikipedia.org\/wiki\/Detroit_Metropolitan_Wayne_County_Airport", "natlscale": 75.0, "comments": null, "wikidataid": "Q652505", "name_ar": "مطار ديترويت", "name_bn": "ডেট্রয়েট মেট্রোপলিটান ওয়েন কান্ট্রি বিমানবন্দর", "name_de": "Detroit Metropolitan Wayne County Airport", "name_en": "Detroit Metropolitan Wayne County Airport", "name_es": "Aeropuerto Internacional de Detroit", "name_fr": "aéroport métropolitain de Détroit", "name_el": null, "name_hi": "डेट्राइट मेट्रोपॉलिटन वेन काउंटी विमानपत्तन", "name_hu": null, "name_id": null, "name_it": "Aeroporto di Detroit-Metropolitan Wayne County", "name_ja": "デトロイト・メトロポリタン・ウェイン・カウンティ空港", "name_ko": "디트로이트 메트로폴리탄 웨인 카운티 공항", "name_nl": "Detroit Metropolitan Wayne County Airport", "name_pl": "Port lotniczy Detroit", "name_pt": "Aeroporto Metropolitano de Detroit Wayne County", "name_ru": null, "name_sv": "Detroit Metropolitan Wayne County Airport", "name_tr": null, "name_vi": "Sân bay quốc tế Detroit", "name_zh": "底特律都会韦恩县机场", "wdid_score": 4, "ne_id": 1159126921 }, "geometry": { "type": "Point", "coordinates": [ -83.347893506561505, 42.225720450800409 ] } },
{ "type": "Feature", "properties": { "scalerank": 3, "featurecla": "Airport", "type": "major", "name": "Mccarran Int'l", "abbrev": "LAS", "location": "terminal", "gps_code": "KLAS", "iata_code": "LAS", "wikipedia": "http:\/\/en.wikipedia.org\/wiki\/McCarran_International_Airport", "natlscale": 75.0, "comments": null, "wikidataid": "Q853886", "name_ar": "مطار ماكاران الدولي", "name_bn": null, "name_de": "Flughafen McCarran International", "name_en": "McCarran International Airport", "name_es": "Aeropuerto Internacional McCarran", "name_fr": "aéroport international McCarran", "name_el": null, "name_hi": null, "name_hu": null, "name_id": "Bandar Udara Internasional McCarran", "name_it": "Aeroporto Internazionale McCarran", "name_ja": "マッカラン国際空港", "name_ko": "매캐런 국제공항", "name_nl": "McCarran International Airport", "name_pl": "Port lotniczy Las Vegas-McCarran", "name_pt": "Aeroporto Internacional de Las Vegas", "name_ru": "Международный аэропорт Маккаран", "name_sv": "McCarran International Airport", "name_tr": "McCarran Uluslararası Havalimanı", "name_vi": "Sân bay quốc tế McCarran", "name_zh": "麦卡伦国际机场", "wdid_score": 4, "ne_id": 1159126995 }, "geometry": { "type": "Point", "coordinates": [ -115.151323951283317, 36.084960238336741 ] } },
{ "type": "Feature", "properties": { "scalerank": 3, "featurecla": "Airport", "type": "major", "name": "Orlando Int'l", "abbrev": "MCO", "location": "terminal", "gps_code": "KMCO", "iata_code": "MCO", "wikipedia": "http:\/\/en.wikipedia.org\/wiki\/Orlando_International_Airport", "natlscale": 75.0, "comments": null, "wikidataid": "Q929859", "name_ar": "مطار أورلاندو الدولي", "name_bn": null, "name_de": "Orlando International Airport", "name_en": "Orlando International Airport", "name_es": "Aeropuerto Internacional de Orlando", "name_fr": "aéroport international d'Orlando", "name_el": null, "name_hi": null, "name_hu": null, "name_id": "Bandara Internasional Orlando", "name_it": "Aeroporto Internazionale di Orlando", "name_ja": "オーランド国際空港", "name_ko": "올랜도 국제공항", "name_nl": "Orlando International Airport", "name_pl": "Port lotniczy Orlando", "name_pt": "Aeroporto Internacional de Orlando", "name_ru": "Орландо", "name_sv": "Orlando International Airport", "name_tr": null, "name_vi": "Sân bay quốc tế Orlando", "name_zh": "奥兰多国际机场", "wdid_score": 4, "ne_id": 1159127009 }, "geometry": { "type": "Point", "coordinates": [ -81.307371330798489, 28.431150679113763 ] } },
{ "type": "Feature", "properties": { "scalerank": 3, "featurecla": "Airport", "type": "major", "name": "Minneapolis St. Paul Int'l", "abbrev": "MSP", "location": "terminal", "gps_code": "KMSP", "iata_code": "MSP", "wikipedia": "http:\/\/en.wikipedia.org\/wiki\/Minneapolis-Saint_Paul_International_Airport", "natlscale": 75.0, "comments": null, "wikidataid": "Q875749", "name_ar": "مطار مينابوليس-سنت بول الدولي", "name_bn": null, "name_de": "Minneapolis-Saint Paul International Airport", "name_en": "Minneapolis–Saint Paul International Airport", "name_es": "Aeropuerto Internacional de Mineápolis-Saint Paul", "name_fr": "aéroport international de Minneapolis-Saint-Paul", "name_el": null, "name_hi": null, "name_hu": null, "name_id": "Bandar Udara Internasional Minneapolis-Saint Paul", "name_it": "Aeroporto Internazionale di Minneapolis-Saint Paul", "name_ja": "ミネアポリス・セントポール国際空港", "name_ko": "미니애폴리스 세인트폴 국제공항", "name_nl": "Internationale luchthaven Minneapolis-Saint Paul", "name_pl": "Port lotniczy Minneapolis-St. Paul", "name_pt": "Aeroporto Internacional de Minneapolis-Saint Paul", "name_ru": "Международный аэропорт Миннеаполис\/Сент-Пол", "name_sv": "Minneapolis-Saint Paul International Airport", "name_tr": null, "name_vi": "Sân bay quốc tế Minneapolis−Saint Paul", "name_zh": "明尼阿波利斯－圣保罗国际机场", "wdid_score": 4, "ne_id": 1159127027 }, "geometry": { "type": "Point", "coordinates": [ -93.208100371830085, 44.882026363196815 ] } },
{ "type": "Feature", "properties": { "scalerank": 3, "featurecla": "Airport", "type": "major", "name": "Philadelphia Int'l", "abbrev": "PHL", "location": "terminal", "gps_code": "KPHL", "iata_code": "PHL", "wikipedia": "http:\/\/en.wikipedia.org\/wiki\/Philadelphia_International_Airport", "natlscale": 75.0, "comments": null, "wikidataid": "Q512128", "name_ar": "مطار فيلادلفيا الدولي", "name_bn": "ফিলাডেলফিয়া আন্তর্জাতিক বিমানবন্দর", "name_de": "Flughafen Philadelphia", "name_en": "Philadelphia International Airport", "name_es": "Aeropuerto Internacional de Filadelfia", "name_fr": "aéroport international de Philadelphie", "name_el": null, "name_hi": null, "name_hu": null, "name_id": "Bandar Udara Internasional Philadelphia", "name_it": "Aeroporto Internazionale di Filadelfia", "name_ja": "フィラデルフィア国際空港", "name_ko": "필라델피아 국제공항", "name_nl": "Philadelphia International Airport", "name_pl": "Port lotniczy Filadelfia", "name_pt": "Aeroporto Internacional de Filadélfia", "name_ru": "Международный аэропорт Филадельфии", "name_sv": "Philadelphia International Airport", "name_tr": null, "name_vi": "Sân bay quốc tế Philadelphia", "name_zh": "費城國際機場", "wdid_score": 4, "ne_id": 1159127049 }, "geometry": { "type": "Point", "coordinates": [ -75.242985767699807, 39.876087236426997 ] } },
{ "type": "Feature", "properties": { "scalerank": 3, "featurecla": "Airport", "type": "major", "name": "Sky Harbor Int'l", "abbrev": "PHX", "location": "terminal", "gps_code": "KPHX", "iata_code": "PHX", "wikipedia": "http:\/\/en.wikipedia.org\/wiki\/Phoenix_Sky_Harbor_International_Airport", "natlscale": 75.0, "comments": null, "wikidataid": "Q912916", "name_ar": "مطار فينيكس سكاي هاربر الدولي", "name_bn": null, "name_de": "Phoenix Sky Harbor International Airport", "name_en": "Phoenix Sky Harbor International Airport", "name_es": "Aeropuerto Internacional Sky Harbor", "name_fr": "aéroport international Sky Harbor de Phoenix", "name_el": null, "name_hi": null, "name_hu": null, "name_id": "Bandar Udara Internasional Sky Harbor Phoenix", "name_it": "Aeroporto Internazionale di Phoenix-Sky Harbor", "name_ja": "フェニックス・スカイハーバー国際空港", "name_ko": "피닉스 스카이 하버 국제공항", "name_nl": "Phoenix Sky Harbor International Airport", "name_pl": "port lotniczy Phoenix-Sky Harbor", "name_pt": "Aeroporto Internacional de Phoenix Sky Harbor", "name_ru": "Финикс Скай-Харбор", "name_sv": "Phoenix Sky Harbor International Airport", "name_tr": "Phoenix Sky Harbor Uluslararası Havalimanı", "name_vi": "Sân bay quốc tế Phoenix Sky Harbor", "name_zh": "鳳凰城天港國際機場", "wdid_score": 4, "ne_id": 1159127063 }, "geometry": { "type": "Point", "coordinates": [ -112.01363529772982, 33.435860763949769 ] } },
{ "type": "Feature", "properties": { "scalerank": 3, "featurecla": "Airport", "type": "major", "name": "Salt Lake City Int'l", "abbrev": "SLC", "location": "terminal", "gps_code": "KSLC", "iata_code": "SLC", "wikipedia": "http:\/\/en.wikipedia.org\/wiki\/Salt_Lake_City_International_Airport", "natlscale": 75.0, "comments": null, "wikidataid": "Q526488", "name_ar": "مطار سولت لايك سيتي الدولي", "name_bn": null, "name_de": "Salt Lake City International Airport", "name_en": "Salt Lake City International Airport", "name_es": "Aeropuerto Internacional de Salt Lake City", "name_fr": "aéroport international de Salt Lake City", "name_el": null, "name_hi": null, "name_hu": null, "name_id": "Bandar Udara Internasional Salt Lake City", "name_it": "Aeroporto Internazionale di Salt Lake City", "name_ja": "ソルトレイクシティ国際空港", "name_ko": "솔트레이크시티 국제공항", "name_nl": "Salt Lake City International Airport", "name_pl": "Port lotniczy Salt Lake City", "name_pt": "Aeroporto Internacional de Salt Lake City", "name_ru": "Солт-Лейк-Сити", "name_sv": "Salt Lake City International Airport", "name_tr": null, "name_vi": "Sân bay quốc tế Thành phố Salt Lake", "name_zh": "鹽湖城國際機場", "wdid_score": 4, "ne_id": 1159127079 }, "geometry": { "type": "Point", "coordinates": [ -111.981984879992709, 40.786729005370844 ] } },
{ "type": "Feature", "properties": { "scalerank": 3, "featurecla": "Airport", "type": "major", "name": "Lambert St Louis Int'l", "abbrev": "STL", "location": "terminal", "gps_code": "KSTL", "iata_code": "STL", "wikipedia": "http:\/\/en.wikipedia.org\/wiki\/Lambert-St._Louis_International_Airport", "natlscale": 75.0, "comments": null, "wikidataid": "Q1425838", "name_ar": "مطار سانت لويس الدولي", "name_bn": null, "name_de": "Flughafen St. Louis", "name_en": "Lambert–St. Louis International Airport", "name_es": "Aeropuerto Internacional Lambert", "name_fr": "aéroport international de Lambert-Saint-Louis", "name_el": null, "name_hi": null, "name_hu": null, "name_id": null, "name_it": "Aeroporto Internazionale Lambert-St. Louis", "name_ja": "ランバート・セントルイス国際空港", "name_ko": null, "name_nl": "Lambert–St. Louis International Airport", "name_pl": "Port lotniczy Saint Louis-Lambert", "name_pt": "Aeroporto Internacional de Lambert–St. Louis", "name_ru": "Аэропорт Сент-Луис Ламберт", "name_sv": "Lambert-St. Louis International Airport", "name_tr": null, "name_vi": "Sân bay quốc tế Lambert-St. Louis", "name_zh": "兰伯特－圣路易斯国际机场", "wdid_score": 4, "ne_id": 1159127093 }, "geometry": { "type": "Point", "coordinates": [ -90.365954535067473, 38.742716315520354 ] } },
{ "type": "Feature", "properties": { "scalerank": 2, "featurecla": "Airport", "type": "major", "name": "Hartsfield-Jackson Atlanta Int'l", "abbrev": "ATL", "location": "terminal", "gps_code": "KATL", "iata_code": "ATL", "wikipedia": "http:\/\/en.wikipedia.org\/wiki\/Hartsfield-Jackson_Atlanta_International_Airport", "natlscale": 150.0, "comments": null, "wikidataid": "Q214861", "name_ar": "مطار هارتسفيلد جاكسون", "name_bn": "হার্টসফিল্ড-জ্যাকসন আটলান্টা আন্তর্জাতিক বিমানবন্দর", "name_de": "Hartsfield–Jackson Atlanta International Airport", "name_en": "Hartsfield–Jackson Atlanta International Airport", "name_es": "Aeropuerto Internacional Hartsfield-Jackson", "name_fr": "aéroport international Hartsfield-Jackson d'Atlanta", "name_el": null, "name_hi": null, "name_hu": "Hartsfield–Jackson nemzetközi repülőtér", "name_id": "Bandar Udara Internasional Hartsfield–Jackson Atlanta", "name_it": "Aeroporto Internazionale di Atlanta-Hartsfield-Jackson", "name_ja": "ハーツフィールド・ジャクソン・アトランタ国際空港", "name_ko": "하츠필드 잭슨 애틀랜타 국제공항", "name_nl": "Hartsfield-Jackson Atlanta International Airport", "name_pl": "Port lotniczy Atlanta - Hartsfield-Jackson", "name_pt": "Aeroporto Internacional de Atlanta Hartsfield-Jackson", "name_ru": "Международный аэропорт Хартсфилд-Джексон Атланта", "name_sv": "Hartsfield–Jackson Atlanta International Airport", "name_tr": "Atlanta Uluslararası Havalimanı", "name_vi": "Sân bay quốc tế Hartsfield-Jackson Atlanta", "name_zh": "哈茨菲尔德－杰克逊亚特兰大国际机场", "wdid_score": 4, "ne_id": 1159127283 }, "geometry": { "type": "Point", "coordinates": [ -84.425397433604729, 33.640529080735213 ] } },
{ "type": "Feature", "properties": { "scalerank": 2, "featurecla": "Airport", "type": "major", "name": "Gen E L Logan Int'l", "abbrev": "BOS", "location": "terminal", "gps_code": "KBOS", "iata_code": "BOS", "wikipedia": "http:\/\/en.wikipedia.org\/wiki\/Logan_International_Airport", "natlscale": 150.0, "comments": null, "wikidataid": "Q671475", "name_ar": "مطار لوجان الدولي", "name_bn": null, "name_de": "Logan International Airport", "name_en": "Logan International Airport", "name_es": "Aeropuerto Internacional Logan", "name_fr": "aéroport international Logan", "name_el": null, "name_hi": "लोगान हवाई अड्डा", "name_hu": null, "name_id": "Bandar Udara Internasional Logan", "name_it": "Aeroporto Internazionale Generale Edward Lawrence Logan", "name_ja": "ジェネラル・エドワード・ローレンス・ローガン国際空港", "name_ko": "로건 국제공항", "name_nl": "Internationale luchthaven Boston", "name_pl": "Port lotniczy Boston", "name_pt": "Aeroporto Internacional de Boston", "name_ru": "Логан", "name_sv": "Logan International Airport", "name_tr": null, "name_vi": "Sân bay quốc tế Logan", "name_zh": "爱德华·劳伦斯·洛根将军国际机场", "wdid_score": 4, "ne_id": 1159127331 }, "geometry": { "type": "Point", "coordinates": [ -71.016406617295843, 42.366565819850564 ] } },
{ "type": "Feature", "properties": { "scalerank": 2, "featurecla": "Airport", "type": "major", "name": "Baltimore-Washington Int'l Thurgood Marshall", "abbrev": "BWI", "location": "terminal", "gps_code": "KBWI", "iata_code": "BWI", "wikipedia": "http:\/\/en.wikipedia.org\/wiki\/Baltimore-Washington_International_Thurgood_Marshall_Airport", "natlscale": 150.0, "comments": null, "wikidataid": "Q94895", "name_ar": "مطار بالتيمور واشنطن الدولي", "name_bn": null, "name_de": "Baltimore-Washington International Airport", "name_en": "Baltimore\/Washington International Thurgood Marshall Airport", "name_es": "Aeropuerto Internacional de Baltimore-Washington", "name_fr": "aéroport international Thurgood Marshall de Baltimore-Washington", "name_el": null, "name_hi": null, "name_hu": null, "name_id": null, "name_it": "Aeroporto Internazionale di Baltimora-Washington Thurgood Marshall", "name_ja": "ボルチモア・ワシントン国際空港", "name_ko": "볼티모어 워싱턴 서굿 마셜 국제공항", "name_nl": "Baltimore\/Washington International Thurgood Marshall Airport", "name_pl": "Port lotniczy Baltimore\/Waszyngton", "name_pt": "Aeroporto Internacional de Baltimore-Washington Thurgood Marshall", "name_ru": "Балтимор\/Вашингтон", "name_sv": null, "name_tr": null, "name_vi": "Sân bay quốc tế Baltimore-Washington Thurgood Marshall", "name_zh": "巴尔的摩\/华盛顿瑟古德·马歇尔国际机场", "wdid_score": 4, "ne_id": 1159127345 }, "geometry": { "type": "Point", "coordinates": [ -76.66864283524481, 39.179394358356781 ] } },
{ "type": "Feature", "properties": { "scalerank": 2, "featurecla": "Airport", "type": "major", "name": "Denver Int'l", "abbrev": "DEN", "location": "terminal", "gps_code": "KDEN", "iata_code": "DEN", "wikipedia": "http:\/\/en.wikipedia.org\/wiki\/Denver_International_Airport", "natlscale": 150.0, "comments": null, "wikidataid": "Q330015", "name_ar": "مطار دنفر الدولي", "name_bn": "ডেনভার আন্তর্জাতিক বিমানবন্দর", "name_de": "Denver International Airport", "name_en": "Denver International Airport", "name_es": "Aeropuerto Internacional de Denver", "name_fr": "aéroport international de Denver", "name_el": null, "name_hi": null, "name_hu": "Denveri nemzetközi repülőtér", "name_id": "Bandar Udara Internasional Denver", "name_it": "Aeroporto Internazionale di Denver", "name_ja": "デンバー国際空港", "name_ko": "덴버 국제공항", "name_nl": "internationale luchthaven van Denver", "name_pl": "Port lotniczy Denver", "name_pt": "Aeroporto Internacional de Denver", "name_ru": "Денвер", "name_sv": "Denver International Airport", "name_tr": "Denver Uluslararası Havalimanı", "name_vi": "Sân bay quốc tế Denver", "name_zh": "丹佛國際機場", "wdid_score": 4, "ne_id": 1159127425 }, "geometry": { "type": "Point", "coordinates": [ -104.673797338541974, 39.849461388150949 ] } },
{ "type": "Feature", "properties": { "scalerank": 2, "featurecla": "Airport", "type": "major", "name": "Dallas-Ft. Worth Int'l", "abbrev": "DFW", "location": "parking", "gps_code": "KDFW", "iata_code": "DFW", "wikipedia": "http:\/\/en.wikipedia.org\/wiki\/Dallas-Fort_Worth_International_Airport", "natlscale": 150.0, "comments": null, "wikidataid": "Q459096", "name_ar": "مطار دالاس فورت ورث الدولي", "name_bn": "ডালাস\/ফোর্ট ওয়ার্থ আন্তর্জাতিক বিমানবন্দর", "name_de": "Flughafen Dallas\/Fort Worth", "name_en": "Dallas\/Fort Worth International Airport", "name_es": "Aeropuerto Internacional de Dallas-Fort Worth", "name_fr": "aéroport international de Dallas-Fort Worth", "name_el": null, "name_hi": "डलास हवाई अड्डा", "name_hu": null, "name_id": "Bandar Udara Internasional Dallas-Fort Worth", "name_it": "Aeroporto Internazionale di Dallas - Fort Worth", "name_ja": "ダラス・フォートワース国際空港", "name_ko": "댈러스 포트워스 국제공항", "name_nl": "Dallas-Fort Worth International Airport", "name_pl": "Port lotniczy Dallas-Fort Worth", "name_pt": "Aeroporto Internacional de Dallas\/Fort Worth", "name_ru": "Даллас\/Форт-Уэрт", "name_sv": "Dallas\/Fort Worth International Airport", "name_tr": "Dallas\/Fort Worth Uluslararası Havalimanı", "name_vi": "Sân bay quốc tế Dallas-Forth Worth", "name_zh": "达拉斯－沃思堡国际机场", "wdid_score": 4, "ne_id": 1159127437 }, "geometry": { "type": "Point", "coordinates": [ -97.040371074114418, 32.900150559481553 ] } },
{ "type": "Feature", "properties": { "scalerank": 2, "featurecla": "Airport", "type": "major", "name": "Newark Int'l", "abbrev": "EWR", "location": "terminal", "gps_code": "KEWR", "iata_code": "EWR", "wikipedia": "http:\/\/en.wikipedia.org\/wiki\/Newark_Liberty_International_Airport", "natlscale": 150.0, "comments": null, "wikidataid": "Q466786", "name_ar": "مطار نيوآرك ليبرتي الدولي", "name_bn": null, "name_de": "Newark Liberty International Airport", "name_en": "Newark Liberty International Airport", "name_es": "Aeropuerto Internacional Libertad de Newark", "name_fr": "aéroport international Newark Liberty", "name_el": null, "name_hi": null, "name_hu": null, "name_id": "Bandar Udara Internasional Liberty Newark", "name_it": "Aeroporto Internazionale di Newark-Liberty", "name_ja": "ニューアーク・リバティー国際空港", "name_ko": "뉴어크 리버티 국제공항", "name_nl": "Newark Liberty International Airport", "name_pl": "Port lotniczy Newark-Liberty", "name_pt": "Aeroporto Internacional de Newark", "name_ru": "Ньюарк", "name_sv": "Newark Liberty International Airport", "name_tr": null, "name_vi": "Sân bay quốc tế Newark Liberty", "name_zh": "紐華克自由國際機場", "wdid_score": 4, "ne_id": 1159127471 }, "geometry": { "type": "Point", "coordinates": [ -74.177147279670606, 40.690479827892922 ] } },
{ "type": "Feature", "properties": { "scalerank": 2, "featurecla": "Airport", "type": "major", "name": "Fort Lauderdale Hollywood Int'l", "abbrev": "FLL", "location": "terminal", "gps_code": "KFLL", "iata_code": "FLL", "wikipedia": "http:\/\/en.wikipedia.org\/wiki\/Fort_Lauderdale-Hollywood_International_Airport", "natlscale": 150.0, "comments": null, "wikidataid": "Q635361", "name_ar": null, "name_bn": null, "name_de": "Flughafen Fort Lauderdale", "name_en": "Fort Lauderdale–Hollywood International Airport", "name_es": "Aeropuerto Internacional de Fort Lauderdale-Hollywood", "name_fr": "aéroport international de Fort Lauderdale-Hollywood", "name_el": null, "name_hi": null, "name_hu": null, "name_id": "Bandar Udara Internasional Hollywood-Fort Lauderdale", "name_it": "Aeroporto Internazionale di Fort Lauderdale-Hollywood", "name_ja": "フォートローダーデール・ハリウッド国際空港", "name_ko": "포트로더데일 할리우드 국제공항", "name_nl": "Fort Lauderdale-Hollywood International Airport", "name_pl": "Port lotniczy Fort Lauderdale\/Hollywood", "name_pt": "Aeroporto Internacional de Fort Lauderdale-Hollywood", "name_ru": "Форт-Лодердейл\/Холливуд", "name_sv": "Fort Lauderdale-Hollywood International Airport", "name_tr": null, "name_vi": "Sân bay quốc tế Fort Lauderdale – Hollywood", "name_zh": "劳德代尔堡－好莱坞国际机场", "wdid_score": 4, "ne_id": 1159127493 }, "geometry": { "type": "Point", "coordinates": [ -80.145258846518914, 26.071709574682728 ] } },
{ "type": "Feature", "properties": { "scalerank": 2, "featurecla": "Airport", "type": "major", "name": "George Bush Intercontinental", "abbrev": "IAH", "location": "terminal", "gps_code": "KIAH", "iata_code": "IAH", "wikipedia": "http:\/\/en.wikipedia.org\/wiki\/George_Bush_Intercontinental_Airport", "natlscale": 150.0, "comments": null, "wikidataid": "Q744748", "name_ar": "مطار جورج بوش الدولي", "name_bn": null, "name_de": "George Bush Intercontinental Airport", "name_en": "George Bush Intercontinental Airport", "name_es": "Aeropuerto Intercontinental George Bush", "name_fr": "aéroport intercontinental George-Bush de Houston", "name_el": null, "name_hi": null, "name_hu": null, "name_id": "Bandar Udara Interkontinental George Bush", "name_it": "Aeroporto Intercontinentale di Houston - George Bush", "name_ja": "ジョージ・ブッシュ・インターコンチネンタル空港", "name_ko": "조지 부시 인터콘티넨털 공항", "name_nl": "George Bush Intercontinental Airport", "name_pl": "Port lotniczy Houston-George Bush", "name_pt": "Aeroporto Intercontinental George Bush", "name_ru": "Хьюстон Интерконтинентал", "name_sv": "George Bush Intercontinental Airport", "name_tr": "George Bush Kıtalararası Havalimanı", "name_vi": "Sân bay liên lục địa George Bush", "name_zh": "喬治·布什洲際機場", "wdid_score": 4, "ne_id": 1159127507 }, "geometry": { "type": "Point", "coordinates": [ -95.333704791294664, 29.986590903490701 ] } },
{ "type": "Feature", "properties": { "scalerank": 2, "featurecla": "Airport", "type": "major", "name": "Los Angeles Int'l", "abbrev": "LAX", "location": "terminal", "gps_code": "KLAX", "iata_code": "LAX", "wikipedia": "http:\/\/en.wikipedia.org\/wiki\/Los_Angeles_International_Airport", "natlscale": 150.0, "comments": null, "wikidataid": "Q8731", "name_ar": "مطار لوس أنجلوس الدولي", "name_bn": "লস অ্যাঞ্জেলেস আন্তর্জাতিক বিমানবন্দর", "name_de": "Los Angeles International Airport", "name_en": "Los Angeles International Airport", "name_es": "Aeropuerto Internacional de Los Ángeles", "name_fr": "aéroport international de Los Angeles", "name_el": "Διεθνές αεροδρόμιο του Λος Αντζελες", "name_hi": null, "name_hu": "Los Angeles-i nemzetközi repülőtér", "name_id": "Bandar Udara Internasional Los Angeles", "name_it": "Aeroporto Internazionale di Los Angeles", "name_ja": "ロサンゼルス国際空港", "name_ko": "로스앤젤레스 국제공항", "name_nl": "internationale luchthaven van Los Angeles", "name_pl": "Port lotniczy Los Angeles", "name_pt": "Aeroporto Internacional de Los Angeles", "name_ru": "Лос-Анджелес", "name_sv": "Los Angeles International Airport", "name_tr": "Los Angeles Uluslararası Havalimanı", "name_vi": "Sân bay quốc tế Los Angeles", "name_zh": "洛杉磯國際機場", "wdid_score": 4, "ne_id": 1159127551 }, "geometry": { "type": "Point", "coordinates": [ -118.402468548521981, 33.944174254358572 ] } },
{ "type": "Feature", "properties": { "scalerank": 2, "featurecla": "Airport", "type": "major", "name": "Chicago O'Hare Int'l", "abbrev": "ORD", "location": "terminal", "gps_code": "KORD", "iata_code": "ORD", "wikipedia": "http:\/\/en.wikipedia.org\/wiki\/O'Hare_International_Airport", "natlscale": 150.0, "comments": null, "wikidataid": "Q213717", "name_ar": "مطار أوهير الدولي", "name_bn": null, "name_de": "Chicago O’Hare International Airport", "name_en": "O'Hare International Airport", "name_es": "Aeropuerto Internacional O'Hare", "name_fr": "aéroport international O'Hare de Chicago", "name_el": "Διεθνές Αεροδρόμιο Ο΄Χερ", "name_hi": "ओहेर् अन्तरराष्ट्रीय विमानाश्रय", "name_hu": "O’Hare nemzetközi repülőtér", "name_id": "Bandar Udara Internasional O'Hare", "name_it": "Aeroporto Internazionale di Chicago - O'Hare", "name_ja": "シカゴ・オヘア国際空港", "name_ko": "오헤어 국제공항", "name_nl": "O'Hare International Airport", "name_pl": "Port lotniczy Chicago-O'Hare", "name_pt": "Aeroporto Internacional O'Hare", "name_ru": "Международный аэропорт О’Хара", "name_sv": "O'Hare International Airport", "name_tr": "O'Hare Uluslararası Havalimanı", "name_vi": "Sân bay Quốc tế O'Hare", "name_zh": "奥黑尔国际机场", "wdid_score": 4, "ne_id": 1159127621 }, "geometry": { "type": "Point", "coordinates": [ -87.905134390650034, 41.976529102380312 ] } },
{ "type": "Feature", "properties": { "scalerank": 2, "featurecla": "Airport", "type": "major", "name": "Tacoma Int'l", "abbrev": "SEA", "location": "terminal", "gps_code": "KSEA", "iata_code": "SEA", "wikipedia": "http:\/\/en.wikipedia.org\/wiki\/Seattle-Tacoma_International_Airport", "natlscale": 150.0, "comments": "???", "wikidataid": "Q14295", "name_ar": "مطار سيتال-تاكوما الدولى", "name_bn": null, "name_de": "Flughafen Seattle-Tacoma", "name_en": "Seattle–Tacoma International Airport", "name_es": "Aeropuerto Internacional de Seattle-Tacoma", "name_fr": "aéroport international de Seattle-Tacoma", "name_el": null, "name_hi": null, "name_hu": null, "name_id": "Bandar Udara Internasional Seattle-Tacoma", "name_it": "aeroporto internazionale di Seattle-Tacoma", "name_ja": "シアトル・タコマ国際空港", "name_ko": "시애틀 터코마 국제공항", "name_nl": "Seattle-Tacoma International Airport", "name_pl": "Port lotniczy Seattle-Tacoma", "name_pt": "Aeroporto Internacional de Seattle-Tacoma", "name_ru": "Сиэтл\/Такома", "name_sv": "Seattle–Tacoma International Airport", "name_tr": null, "name_vi": "Sân bay quốc tế Seattle-Tacoma", "name_zh": "西雅圖－塔科馬國際機場", "wdid_score": 2, "ne_id": 1159127655 }, "geometry": { "type": "Point", "coordinates": [ -122.302289722923874, 47.443581912725911 ] } },
{ "type": "Feature", "properties": { "scalerank": 2, "featurecla": "Airport", "type": "major", "name": "San Francisco Int'l", "abbrev": "SFO", "location": "terminal", "gps_code": "KSFO", "iata_code": "SFO", "wikipedia": "http:\/\/en.wikipedia.org\/wiki\/San_Francisco_International_Airport", "natlscale": 150.0, "comments": null, "wikidataid": "Q8688", "name_ar": "مطار سان فرانسيسكو الدولي", "name_bn": "সান ফ্রান্সিস্কো আন্তর্জাতিক বিমানবন্দর", "name_de": "San Francisco International Airport", "name_en": "San Francisco International Airport", "name_es": "Aeropuerto Internacional de San Francisco", "name_fr": "aéroport international de San Francisco", "name_el": null, "name_hi": null, "name_hu": "San Franciscó-i nemzetközi repülőtér", "name_id": "Bandar Udara Internasional San Francisco", "name_it": "Aeroporto Internazionale di San Francisco", "name_ja": "サンフランシスコ国際空港", "name_ko": "샌프란시스코 국제공항", "name_nl": "internationale luchthaven van San Francisco", "name_pl": "Port lotniczy San Francisco", "name_pt": "Aeroporto Internacional de São Francisco", "name_ru": "Международный аэропорт Сан-Франциско", "name_sv": "San Francisco International Airport", "name_tr": "San Francisco Uluslararası Havalimanı", "name_vi": "Sân bay quốc tế San Francisco", "name_zh": "舊金山國際機場", "wdid_score": 4, "ne_id": 1159127665 }, "geometry": { "type": "Point", "coordinates": [ -122.38347034444935, 37.617025086805349 ] } },
{ "type": "Feature", "properties": { "scalerank": 2, "featurecla": "Airport", "type": "major", "name": "Toronto-Pearson Int'l", "abbrev": "YYZ", "location": "terminal", "gps_code": "CYYZ", "iata_code": "YYZ", "wikipedia": "http:\/\/en.wikipedia.org\/wiki\/Toronto_Pearson_International_Airport", "natlscale": 150.0, "comments": null, "wikidataid": "Q242066", "name_ar": "مطار تورونتو بيرسون الدولي", "name_bn": null, "name_de": "Flughafen Toronto", "name_en": "Toronto Pearson International Airport", "name_es": "Aeropuerto Internacional Toronto Pearson", "name_fr": "aéroport international Pearson de Toronto", "name_el": "Διεθνές Αεροδρόμιο του Τορόντο", "name_hi": "टोरोंटो पियरसन अन्तर्राष्ट्रीय विमानक्षेत्र", "name_hu": null, "name_id": "Bandar Udara Internasional Pearson Toronto", "name_it": "Aeroporto Internazionale di Toronto-Pearson", "name_ja": "トロント・ピアソン国際空港", "name_ko": "토론토 피어슨 국제공항", "name_nl": "Toronto Pearson International Airport", "name_pl": "Port lotniczy Toronto-Lester B. Pearson", "name_pt": "Aeroporto Internacional Toronto Pearson", "name_ru": "Торонто", "name_sv": "Toronto Pearson International Airport", "name_tr": "Toronto Pearson Uluslararası Havalimanı", "name_vi": "Sân bay quốc tế Toronto Pearson", "name_zh": "多倫多皮爾遜國際機場", "wdid_score": 4, "ne_id": 1159127701 }, "geometry": { "type": "Point", "coordinates": [ -79.611419324744858, 43.680959518635639 ] } }
]
}
